[{"id":19965855,"tags":{"check_date":"2025-12-16","fee":"yes","from":"Ca. Diego Quispe Tito","hash":"12871","interval":"4","name":"Ca. Diego Quispe Tito → Ca. José la Rivera","network":"Transporte Público Urbano Trujillo","opening_hours":"Mo-Su 05:00-23:00","operator":"NUEVOS GIRASOLES S.A.","public_transport:version":"2","ref":"C-01 B","route":"bus","to":"Ca. José la Rivera","type":"route"}},{"id":19972060,"tags":{"check_date":"2025-12-17","fee":"yes","from":"Ca. José la Rivera","hash":"12080","interval":"4","name":"Ca. José la Rivera → Ca. Diego Quispe Tito","network":"Transporte Público Urbano Trujillo","opening_hours":"Mo-Su 05:00-23:00","operator":"NUEVOS GIRASOLES S.A.","public_transport:version":"2","ref":"C-01 B","route":"bus","to":"Ca. Diego Quispe Tito","type":"route"}},{"id":19966163,"tags":{"check_date":"2025-12-16","fee":"yes","from":"Av. Alan García","hash":"12146","interval":"4","name":"Av. Alan García → Av. Federico Villarreal","network":"Transporte Público Urbano Trujillo","opening_hours":"Mo-Su 05:00-23:00","operator":"NUEVOS GIRASOLES S.A.","public_transport:version":"2","ref":"C-02 H","route":"bus","to":"Av. Federico Villarreal","type":"route"}},{"id":19966210,"tags":{"check_date":"2025-12-16","fee":"yes","from":"Av. Federico Villarreal","hash":"12916","interval":"4","name":"Av. Federico Villarreal → Av. Alan García","network":"Transporte Público Urbano Trujillo","opening_hours":"Mo-Su 05:00-23:00","operator":"NUEVOS GIRASOLES S.A.","public_transport:version":"2","ref":"C-02 H","route":"bus","to":"Av. Alan García","type":"route"}},{"id":19966201,"tags":{"check_date":"2025-12-16","fee":"yes","from":"Ca. de los Jasmines","hash":"11711","interval":"4","name":"Ca. de los Jasmines → Ca. Santa Rosa","network":"Transporte Público Urbano Trujillo","opening_hours":"Mo-Su 05:00-23:00","operator":"NUEVOS GIRASOLES S.A.","public_transport:version":"2","ref":"C-03 JJ","route":"bus","to":"Ca. Santa Rosa","type":"route"}},{"id":19966215,"tags":{"check_date":"2025-12-18","fee":"yes","from":"Ca. Santa Rosa","hash":"12493","interval":"4","name":"Ca. Santa Rosa → Ca. de los Jasmines","network":"Transporte Público Urbano Trujillo","opening_hours":"Mo-Su 05:00-23:00","operator":"NUEVOS GIRASOLES S.A.","public_transport:version":"2","ref":"C-03 JJ","route":"bus","to":"Ca. de los Jasmines","type":"route"}},{"id":19966218,"tags":{"check_date":"2025-12-16","fee":"yes","from":"Ca. de los Jasmines","hash":"13419","interval":"5","name":"Ca. de los Jasmines → Av. Federico Villarreal","network":"Transporte Público Urbano Trujillo","opening_hours":"Mo-Su 05:00-23:00","operator":"MODERNO GIRASOLES EXPRESS S.A","public_transport:version":"2","ref":"C-04 XS","route":"bus","to":"Av. Federico Villarreal","type":"route"}},{"id":19966224,"tags":{"check_date":"2025-12-16","fee":"yes","from":"Av. Federico Villarreal","hash":"14193","interval":"5","name":"Av. Federico Villarreal → Ca. de los Jasmines","network":"Transporte Público Urbano Trujillo","opening_hours":"Mo-Su 05:00-23:00","operator":"MODERNO GIRASOLES EXPRESS S.A","public_transport:version":"2","ref":"C-04 XS","route":"bus","to":"Ca. de los Jasmines","type":"route"}},{"id":19966226,"tags":{"check_date":"2025-12-16","fee":"yes","from":"Ca. Jirón Cuba","hash":"12818","interval":"3","name":"Ca. Jirón Cuba → Av. Federico Villarreal","network":"Transporte Público Urbano Trujillo","opening_hours":"Mo-Su 05:00-23:00","operator":"MODERNO GIRASOLES EXPRESS S.A","public_transport:version":"2","ref":"C-05 B1","route":"bus","to":"Av. Federico Villarreal","type":"route"}},{"id":19966253,"tags":{"check_date":"2025-12-16","fee":"yes","from":"Av. Federico Villarreal","hash":"13595","interval":"3","name":"Av. Federico Villarreal → Ca. Jirón Cuba","network":"Transporte Público Urbano Trujillo","opening_hours":"Mo-Su 05:00-23:00","operator":"MODERNO GIRASOLES EXPRESS S.A","public_transport:version":"2","ref":"C-05 B1","route":"bus","to":"Ca. Jirón Cuba","type":"route"}},{"id":19966264,"tags":{"check_date":"2025-12-16","fee":"yes","from":"A.H. El Reposo","hash":"11941","interval":"5","name":"A.H. El Reposo → Ca. Señor de Los Milagros","network":"Transporte Público Urbano Trujillo","opening_hours":"Mo-Su 05:00-23:00","operator":"TITANIC EXPRESS S.A.","public_transport:version":"2","ref":"C-06 K","route":"bus","to":"Ca. Señor de Los Milagros","type":"route"}},{"id":19966270,"tags":{"check_date":"2025-12-16","fee":"yes","from":"Ca. Señor de Los Milagros","hash":"12715","interval":"5","name":"Ca. Señor de Los Milagros → A.H. El Reposo","network":"Transporte Público Urbano Trujillo","opening_hours":"Mo-Su 05:00-23:00","operator":"TITANIC EXPRESS S.A.","public_transport:version":"2","ref":"C-06 K","route":"bus","to":"A.H. El Reposo","type":"route"}},{"id":19966288,"tags":{"check_date":"2025-12-16","fee":"yes","from":"A.H. El Reposo","hash":"11167","interval":"3","name":"A.H. El Reposo → Ca. 9 de Octubre","network":"Transporte Público Urbano Trujillo","opening_hours":"Mo-Su 05:00-23:00","operator":"TITANIC EXPRESS S.A.","public_transport:version":"2","ref":"C-07 Z1","route":"bus","to":"Ca. 9 de Octubre","type":"route"}},{"id":19966297,"tags":{"check_date":"2025-12-16","fee":"yes","from":"Ca. 9 de Octubre","hash":"11944","interval":"3","name":"Ca. 9 de Octubre → A.H. El Reposo","network":"Transporte Público Urbano Trujillo","opening_hours":"Mo-Su 05:00-23:00","operator":"TITANIC EXPRESS S.A.","public_transport:version":"2","ref":"C-07 Z1","route":"bus","to":"A.H. El Reposo","type":"route"}},{"id":19967351,"tags":{"check_date":"2025-12-16","fee":"yes","from":"Ca. Jirón los Algarobos","hash":"12119","interval":"5","name":"Ca. Jirón los Algarobos → Ca. San Martín","network":"Transporte Público Urbano Trujillo","opening_hours":"Mo-Su 05:00-23:00","operator":"TITANIC EXPRESS S.A.","public_transport:version":"2","ref":"C-08 O","route":"bus","to":"Ca. San Martín","type":"route"}},{"id":19972065,"tags":{"check_date":"2025-12-18","fee":"yes","from":"Ca. San Martín","hash":"12894","interval":"5","name":"Ca. San Martín → Ca. Jirón los Algarobos","network":"Transporte Público Urbano Trujillo","opening_hours":"Mo-Su 05:00-23:00","operator":"TITANIC EXPRESS S.A.","public_transport:version":"2","ref":"C-08 O","route":"bus","to":"Ca. Jirón los Algarobos","type":"route"}},{"id":19967529,"tags":{"check_date":"2025-12-16","fee":"yes","from":"Distrito Huanchaco","hash":"11846","interval":"4","name":"Distrito Huanchaco → Ca. San Gabriel","network":"Transporte Público Urbano Trujillo","opening_hours":"Mo-Su 05:00-23:00","operator":"ARCO IRIS EXPRESS S.A.","public_transport:version":"2","ref":"C-09 E","route":"bus","to":"Ca. San Gabriel","type":"route"}},{"id":19967536,"tags":{"check_date":"2025-12-16","fee":"yes","from":"Ca. San Gabriel","hash":"12621","interval":"4","name":"Ca. San Gabriel → Distrito Huanchaco","network":"Transporte Público Urbano Trujillo","opening_hours":"Mo-Su 05:00-23:00","operator":"ARCO IRIS EXPRESS S.A.","public_transport:version":"2","ref":"C-09 E","route":"bus","to":"Distrito Huanchaco","type":"route"}},{"id":19967551,"tags":{"check_date":"2025-12-16","fee":"yes","from":"Campiña de Moche","hash":"11092","interval":"3","name":"Campiña de Moche → Av. Los Incas","network":"Transporte Público Urbano Trujillo","opening_hours":"Mo-Su 05:00-23:00","operator":"MOCHICA CHIMÚ S.R.L","public_transport:version":"2","ref":"C-10 M","route":"bus","to":"Av. Los Incas","type":"route"}},{"id":19967562,"tags":{"check_date":"2025-12-16","fee":"yes","from":"Av. Los Incas","hash":"11871","interval":"3","name":"Av. Los Incas → Campiña de Moche","network":"Transporte Público Urbano Trujillo","opening_hours":"Mo-Su 05:00-23:00","operator":"MOCHICA CHIMÚ S.R.L","public_transport:version":"2","ref":"C-10 M","route":"bus","to":"Campiña de Moche","type":"route"}},{"id":19967583,"tags":{"check_date":"2025-12-16","fee":"yes","from":"Ca. Jirón Santa Isabel","hash":"15774","interval":"9","name":"Ca. Jirón Santa Isabel → Alto Porvenir","network":"Transporte Público Urbano Trujillo","opening_hours":"Mo-Su 05:00-23:00","operator":"SAN ISIDRO LABRADOR S.A.","public_transport:version":"2","ref":"C-11 T1","route":"bus","to":"Alto Porvenir","type":"route"}},{"id":19967604,"tags":{"check_date":"2025-12-18","fee":"yes","from":"Alto Porvenir","hash":"16545","interval":"9","name":"Alto Porvenir → Ca. Jirón Santa Isabel","network":"Transporte Público Urbano Trujillo","opening_hours":"Mo-Su 05:00-23:00","operator":"SAN ISIDRO LABRADOR S.A.","public_transport:version":"2","ref":"C-11 T1","route":"bus","to":"Ca. Jirón Santa Isabel","type":"route"}},{"id":19967639,"tags":{"check_date":"2025-12-16","fee":"yes","from":"Ca. Jirón Santa Isabel","hash":"16805","interval":"9","name":"Ca. Jirón Santa Isabel → Alto Porvenir","network":"Transporte Público Urbano Trujillo","opening_hours":"Mo-Su 05:03-23:00","operator":"SAN ISIDRO LABRADOR S.A.","public_transport:version":"2","ref":"C-11 T1","route":"bus","to":"Alto Porvenir","type":"route"}},{"id":19967670,"tags":{"check_date":"2025-12-16","fee":"yes","from":"Alto Porvenir","hash":"17577","interval":"9","name":"Alto Porvenir → Ca. Jirón Santa Isabel","network":"Transporte Público Urbano Trujillo","opening_hours":"Mo-Su 05:03-23:00","operator":"SAN ISIDRO LABRADOR S.A.","public_transport:version":"2","ref":"C-11 T1","route":"bus","to":"Ca. Jirón Santa Isabel","type":"route"}},{"id":19967674,"tags":{"check_date":"2025-12-16","fee":"yes","from":"Panamericana Norte","hash":"17367","interval":"9","name":"Panamericana Norte → Alto Porvenir","network":"Transporte Público Urbano Trujillo","opening_hours":"Mo-Su 05:06-23:00","operator":"SAN ISIDRO LABRADOR S.A.","public_transport:version":"2","ref":"C-11 T1","route":"bus","to":"Alto Porvenir","type":"route"}},{"id":19967678,"tags":{"check_date":"2025-12-16","fee":"yes","from":"Alto Porvenir","hash":"18148","interval":"9","name":"Alto Porvenir → Panamericana Norte","network":"Transporte Público Urbano Trujillo","opening_hours":"Mo-Su 05:06-23:00","operator":"SAN ISIDRO LABRADOR S.A.","public_transport:version":"2","ref":"C-11 T1","route":"bus","to":"Panamericana Norte","type":"route"}},{"id":19967679,"tags":{"check_date":"2025-12-16","fee":"yes","from":"Alto Porvenir","hash":"16970","interval":"9","name":"Alto Porvenir → Panamericana Norte","network":"Transporte Público Urbano Trujillo","opening_hours":"Mo-Su 05:06-23:00","operator":"SAN ISIDRO LABRADOR S.A.","public_transport:version":"2","ref":"C-11 T1","route":"bus","to":"Panamericana Norte","type":"route"}},{"id":19990111,"tags":{"check_date":"2025-12-22","fee":"yes","from":"Panamericana Norte","hash":"25090","interval":"9","name":"Panamericana Norte → Alto Porvenir","network":"Transporte Público Urbano Trujillo","opening_hours":"Mo-Su 05:09-23:00","operator":"SAN ISIDRO LABRADOR S.A.","public_transport:version":"2","ref":"C-11 T1","route":"bus","to":"Alto Porvenir","type":"route"}},{"id":19990115,"tags":{"check_date":"2025-12-22","fee":"yes","from":"Alto Porvenir","hash":"25871","interval":"9","name":"Alto Porvenir → Panamericana Norte","network":"Transporte Público Urbano Trujillo","opening_hours":"Mo-Su 05:09-23:00","operator":"SAN ISIDRO LABRADOR S.A.","public_transport:version":"2","ref":"C-11 T1","route":"bus","to":"Panamericana Norte","type":"route"}},{"id":19968101,"tags":{"check_date":"2025-12-16","fee":"yes","from":"Sector Taquila","hash":"12596","interval":"3","name":"Sector Taquila → A.H. Carlos García Ronceros","network":"Transporte Público Urbano Trujillo","opening_hours":"Mo-Su 05:00-23:00","operator":"SANTA LUCIA DE MOCHE S.R.L.","public_transport:version":"2","ref":"C-12 B","route":"bus","to":"A.H. Carlos García Ronceros","type":"route"}},{"id":19968109,"tags":{"check_date":"2025-12-16","fee":"yes","from":"A.H. Carlos García Ronceros","hash":"13381","interval":"3","name":"A.H. Carlos García Ronceros → Sector Taquila","network":"Transporte Público Urbano Trujillo","opening_hours":"Mo-Su 05:00-23:00","operator":"SANTA LUCIA DE MOCHE S.R.L.","public_transport:version":"2","ref":"C-12 B","route":"bus","to":"Sector Taquila","type":"route"}},{"id":19968121,"tags":{"check_date":"2025-12-16","fee":"yes","from":"Av. 12 de Noviembre","hash":"12323","interval":"3","name":"Av. 12 de Noviembre → Ca. Miguiel Graú","network":"Transporte Público Urbano Trujillo","opening_hours":"Mo-Su 05:00-23:00","operator":"MOCHICA S.A.","public_transport:version":"2","ref":"C-13 D","route":"bus","to":"Ca. Miguiel Graú","type":"route"}},{"id":19968127,"tags":{"check_date":"2025-12-16","fee":"yes","from":"Ca. Miguiel Graú","hash":"13106","interval":"3","name":"Ca. Miguiel Graú → Av. 12 de Noviembre","network":"Transporte Público Urbano Trujillo","opening_hours":"Mo-Su 05:00-23:00","operator":"MOCHICA S.A.","public_transport:version":"2","ref":"C-13 D","route":"bus","to":"Av. 12 de Noviembre","type":"route"}},{"id":19972191,"tags":{"check_date":"2025-12-17","fee":"yes","from":"Sector Taquila","hash":"12975","interval":"3","name":"Sector Taquila → Alto Trujillo","network":"Transporte Público Urbano Trujillo","opening_hours":"Mo-Su 05:00-23:00","operator":"NUEVO DIAMANTE S.A.","public_transport:version":"2","ref":"C-13 D","route":"bus","to":"Alto Trujillo","type":"route"}},{"id":19972195,"tags":{"check_date":"2025-12-17","fee":"yes","from":"Alto Trujillo","hash":"12202","interval":"3","name":"Alto Trujillo → Sector Taquila","network":"Transporte Público Urbano Trujillo","opening_hours":"Mo-Su 05:00-23:00","operator":"NUEVO DIAMANTE S.A.","public_transport:version":"2","ref":"C-13 D","route":"bus","to":"Sector Taquila","type":"route"}},{"id":19968169,"tags":{"check_date":"2025-12-16","fee":"yes","from":"Ca. José Galvez","hash":"12971","interval":"6","name":"Ca. José Galvez → Campiña de Moche","network":"Transporte Público Urbano Trujillo","opening_hours":"Mo-Su 05:00-23:00","operator":"LOS GIRASOLES SERVICE S.R.L.","public_transport:version":"2","ref":"C-14 S","route":"bus","to":"Campiña de Moche","type":"route"}},{"id":19972103,"tags":{"check_date":"2025-12-17","fee":"yes","from":"Campiña de Moche","hash":"12177","interval":"6","name":"Campiña de Moche → Ca. José Galvez","network":"Transporte Público Urbano Trujillo","opening_hours":"Mo-Su 05:00-23:00","operator":"LOS GIRASOLES SERVICE S.R.L.","public_transport:version":"2","ref":"C-14 S","route":"bus","to":"Ca. José Galvez","type":"route"}},{"id":19972508,"tags":{"check_date":"2025-12-17","fee":"yes","from":"Sector Tres Cruces","hash":"14851","interval":"20","name":"Sector Tres Cruces → Av. America del Sur","network":"Transporte Público Urbano Trujillo","opening_hours":"Mo-Su 03:20-19:00","operator":"SANTA ROSA S.R.L.","public_transport:version":"2","ref":"C-15 P1","route":"bus","to":"Av. America del Sur","type":"route"}},{"id":19973946,"tags":{"check_date":"2025-12-17","fee":"yes","from":"Av. America del Sur","hash":"15635","interval":"20","name":"Av. America del Sur → Sector Tres Cruces","network":"Transporte Público Urbano Trujillo","opening_hours":"Mo-Su 03:20-19:00","operator":"SANTA ROSA S.R.L.","public_transport:version":"2","ref":"C-15 P1","route":"bus","to":"Sector Tres Cruces","type":"route"}},{"id":19973949,"tags":{"check_date":"2025-12-17","fee":"yes","from":"Sector Huayabito","hash":"14699","interval":"20","name":"Sector Huayabito → Av. America del Sur","network":"Transporte Público Urbano Trujillo","opening_hours":"Mo-Su 03:30-19:00","operator":"SANTA ROSA S.R.L.","public_transport:version":"2","ref":"C-15 P1","route":"bus","to":"Av. America del Sur","type":"route"}},{"id":19973958,"tags":{"check_date":"2025-12-17","fee":"yes","from":"Av. America del Sur","hash":"15476","interval":"20","name":"Av. America del Sur → Sector Huayabito","network":"Transporte Público Urbano Trujillo","opening_hours":"Mo-Su 03:30-19:00","operator":"SANTA ROSA S.R.L.","public_transport:version":"2","ref":"C-15 P1","route":"bus","to":"Sector Huayabito","type":"route"}},{"id":19988601,"tags":{"check_date":"2025-12-17","fee":"yes","from":"Sector Tres Cruces","hash":"7006","interval":"20","name":"Sector Tres Cruces → Av. América Sur","network":"Transporte Público Urbano Trujillo","opening_hours":"Mo-Su 03:20-19:00","operator":"POROTO S.A.","public_transport:version":"2","ref":"C-15 P1","route":"bus","to":"Av. América Sur","type":"route"}},{"id":19988606,"tags":{"check_date":"2025-12-17","fee":"yes","from":"Av. America del Sur","hash":"7479","interval":"20","name":"Av. America del Sur → Sector Tres Cruces","network":"Transporte Público Urbano Trujillo","opening_hours":"Mo-Su 03:20-19:00","operator":"POROTO S.A.","public_transport:version":"2","ref":"C-15 P1","route":"bus","to":"Sector Tres Cruces","type":"route"}},{"id":19988678,"tags":{"check_date":"2025-12-17","fee":"yes","from":"Sector Huayabito","hash":"7073","interval":"20","name":"Sector Huayabito → Av. America del Sur","network":"Transporte Público Urbano Trujillo","opening_hours":"Mo-Su 03:30-19:00","operator":"POROTO S.A.","public_transport:version":"2","ref":"C-15 P1","route":"bus","to":"Av. America del Sur","type":"route"}},{"id":19988688,"tags":{"check_date":"2025-12-17","fee":"yes","from":"Av. America del Sur","hash":"7333","interval":"20","name":"Av. America del Sur → Sector Huayabito","network":"Transporte Público Urbano Trujillo","opening_hours":"Mo-Su 03:30-19:00","operator":"POROTO S.A.","public_transport:version":"2","ref":"C-15 P1","route":"bus","to":"Sector Huayabito","type":"route"}},{"id":19968183,"tags":{"check_date":"2025-12-16","fee":"yes","from":"A.H. Ciudad de Dios","hash":"11678","interval":"4","name":"A.H. Ciudad de Dios → Av. Antenor Orrego","network":"Transporte Público Urbano Trujillo","opening_hours":"Mo-Su 05:00-23:00","operator":"VIRGEN DEL ARCO S.A.","public_transport:version":"2","ref":"C-16 I","route":"bus","to":"Av. Antenor Orrego","type":"route"}},{"id":19968195,"tags":{"check_date":"2025-12-16","fee":"yes","from":"Av. Antenor Orrego","hash":"12458","interval":"4","name":"Av. Antenor Orrego → A.H. Ciudad de Dios","network":"Transporte Público Urbano Trujillo","opening_hours":"Mo-Su 05:00-23:00","operator":"VIRGEN DEL ARCO S.A.","public_transport:version":"2","ref":"C-16 I","route":"bus","to":"A.H. Ciudad de Dios","type":"route"}},{"id":19968210,"tags":{"check_date":"2025-12-16","fee":"yes","from":"A.H. Ciudad de Dios","hash":"11471","interval":"4","name":"A.H. Ciudad de Dios → Av. Juan Pablo II","network":"Transporte Público Urbano Trujillo","opening_hours":"Mo-Su 05:00-23:00","operator":"VIRGEN DEL ARCO S.A.","public_transport:version":"2","ref":"C-17 F","route":"bus","to":"Av. Juan Pablo II","type":"route"}},{"id":19968338,"tags":{"check_date":"2025-12-16","fee":"yes","from":"Av. Juan Pablo II","hash":"12259","interval":"4","name":"Av. Juan Pablo II → A.H. Ciudad de Dios","network":"Transporte Público Urbano Trujillo","opening_hours":"Mo-Su 05:00-23:00","operator":"VIRGEN DEL ARCO S.A.","public_transport:version":"2","ref":"C-17 F","route":"bus","to":"A.H. Ciudad de Dios","type":"route"}},{"id":19968352,"tags":{"check_date":"2025-12-16","fee":"yes","from":"Cruce Vial S/N","hash":"11437","interval":"3","name":"Cruce Vial S/N → Av. Cesar Vallejo","network":"Transporte Público Urbano Trujillo","opening_hours":"Mo-Su 05:00-23:00","operator":"VIRGEN DEL ARCO S.A.","public_transport:version":"2","ref":"C-18 P","route":"bus","to":"Av. Cesar Vallejo","type":"route"}},{"id":19988569,"tags":{"check_date":"2025-12-17","fee":"yes","from":"Av. Cesar Vallejo","hash":"12168","interval":"3","name":"Av. Cesar Vallejo → Cruce Vial S/N","network":"Transporte Público Urbano Trujillo","opening_hours":"Mo-Su 05:00-23:00","operator":"VIRGEN DEL ARCO S.A.","public_transport:version":"2","ref":"C-18 P","route":"bus","to":"Cruce Vial S/N","type":"route"}},{"id":19968383,"tags":{"check_date":"2025-12-16","fee":"yes","from":"Av. Victor Raul Haya de la Torre","hash":"13512","interval":"5","name":"Av. Victor Raul Haya de la Torre → Barrio 5C","network":"Transporte Público Urbano Trujillo","opening_hours":"Mo-Su 05:00-23:00","operator":"MENSAJEROS DEL SEÑOR S.A.","public_transport:version":"2","ref":"C-19 NN","route":"bus","to":"Barrio 5C","type":"route"}},{"id":19968388,"tags":{"check_date":"2025-12-16","fee":"yes","from":"Barrio 5C","hash":"12740","interval":"5","name":"Barrio 5C → Av. Victor Raul Haya de la Torre","network":"Transporte Público Urbano Trujillo","opening_hours":"Mo-Su 05:00-23:00","operator":"MENSAJEROS DEL SEÑOR S.A.","public_transport:version":"2","ref":"C-19 NN","route":"bus","to":"Av. Victor Raul Haya de la Torre","type":"route"}},{"id":19971427,"tags":{"fee":"yes","from":"Urb. Valle Sol","hash":"12485","interval":"4","name":"Urb. Valle Sol → Alto Trujillo","network":"Transporte Público Urbano Trujillo","opening_hours":"Mo-Su 05:00-23:00","operator":"LUZ DIVINA S.A.","public_transport:version":"2","ref":"C-20 UI","route":"bus","to":"Alto Trujillo","type":"route"}},{"id":19971440,"tags":{"fee":"yes","from":"Alto Trujillo","hash":"13257","interval":"4","name":"Alto Trujillo → Urb. Valle Sol","network":"Transporte Público Urbano Trujillo","opening_hours":"Mo-Su 05:00-23:00","operator":"LUZ DIVINA S.A.","public_transport:version":"2","ref":"C-20 UI","route":"bus","to":"Urb. Valle Sol","type":"route"}},{"id":19972121,"tags":{"check_date":"2025-12-17","fee":"yes","from":"Urb. Valle Sol","hash":"12560","interval":"4","name":"Urb. Valle Sol → Alto Trujillo","network":"Transporte Público Urbano Trujillo","opening_hours":"Mo-Su 05:00-23:00","operator":"LUZ DIVINA S.A.","public_transport:version":"2","ref":"C-21 R","route":"bus","to":"Alto Trujillo","type":"route"}},{"id":19972128,"tags":{"check_date":"2025-12-17","fee":"yes","from":"Alto Trujillo","hash":"13536","interval":"4","name":"Alto Trujillo → Urb. Valle Sol","network":"Transporte Público Urbano Trujillo","opening_hours":"Mo-Su 05:00-23:00","operator":"LUZ DIVINA S.A.","public_transport:version":"2","ref":"C-21 R","route":"bus","to":"Urb. Valle Sol","type":"route"}},{"id":19972155,"tags":{"check_date":"2025-12-17","fee":"yes","from":"Urb. Valle So","hash":"12191","interval":"4","name":"Urb. Valle So → Alto Trujillo","network":"Transporte Público Urbano Trujillo","opening_hours":"Mo-Su 05:00-23:00","operator":"LUZ DIVINA S.A.","public_transport:version":"2","ref":"C-22 M","route":"bus","to":"Alto Trujillo","type":"route"}},{"id":19972157,"tags":{"check_date":"2025-12-17","fee":"yes","from":"Alto Trujillo","hash":"13162","interval":"4","name":"Alto Trujillo → Urb. Valle So","network":"Transporte Público Urbano Trujillo","opening_hours":"Mo-Su 05:00-23:00","operator":"LUZ DIVINA S.A.","public_transport:version":"2","ref":"C-22 M","route":"bus","to":"Urb. Valle So","type":"route"}},{"id":19970882,"tags":{"fee":"yes","from":"Ca. Venezuela","hash":"12211","interval":"3","name":"Ca. Venezuela → Ca. José Joaquín Inclán","network":"Transporte Público Urbano Trujillo","opening_hours":"Mo-Su 05:00-23:00","operator":"SANTA CATALINA S.A.","public_transport:version":"2","ref":"C-23 S1","route":"bus","to":"Ca. José Joaquín Inclán","type":"route"}},{"id":19970891,"tags":{"fee":"yes","from":"Ca. José Joaquín Inclán","hash":"12988","interval":"3","name":"Ca. José Joaquín Inclán → Ca. Venezuela","network":"Transporte Público Urbano Trujillo","opening_hours":"Mo-Su 05:00-23:00","operator":"SANTA CATALINA S.A.","public_transport:version":"2","ref":"C-23 S1","route":"bus","to":"Ca. Venezuela","type":"route"}},{"id":19970967,"tags":{"fee":"yes","from":"Ca. 01","hash":"10805","interval":"4","name":"Ca. 01 → Av. Larco","network":"Transporte Público Urbano Trujillo","opening_hours":"Mo-Su 05:00-23:00","operator":"SANTA CATALINA S.A.","public_transport:version":"2","ref":"C-24 H1, H2","route":"bus","to":"Av. Larco","type":"route"}},{"id":19972158,"tags":{"check_date":"2025-12-17","fee":"yes","from":"Av. Larco","hash":"11576","interval":"4","name":"Av. Larco → Ca. 01","network":"Transporte Público Urbano Trujillo","opening_hours":"Mo-Su 05:00-23:00","operator":"SANTA CATALINA S.A.","public_transport:version":"2","ref":"C-24 H1, H2","route":"bus","to":"Ca. 01","type":"route"}},{"id":19972081,"tags":{"check_date":"2025-12-17","fee":"yes","from":"Av. Julian Arce","hash":"10944","interval":"3","name":"Av. Julian Arce → Ca. Manuel Romero","network":"Transporte Público Urbano Trujillo","opening_hours":"Mo-Su 05:00-23:00","operator":"EL AGUILA S.A.","public_transport:version":"2","ref":"C-25 S2","route":"bus","to":"Ca. Manuel Romero","type":"route"}},{"id":19972086,"tags":{"check_date":"2025-12-17","fee":"yes","from":"Ca. Manuel Romero","hash":"11726","interval":"3","name":"Ca. Manuel Romero → Av. Julian Arce","network":"Transporte Público Urbano Trujillo","opening_hours":"Mo-Su 05:00-23:00","operator":"EL AGUILA S.A.","public_transport:version":"2","ref":"C-25 S2","route":"bus","to":"Av. Julian Arce","type":"route"}},{"id":19972095,"tags":{"check_date":"2025-12-17","fee":"yes","from":"Av. Julian Arce","hash":"10329","interval":"5","name":"Av. Julian Arce → Óvalo Grau","network":"Transporte Público Urbano Trujillo","opening_hours":"Mo-Su 05:00-23:00","operator":"EL AGUILA S.A.","public_transport:version":"2","ref":"C-26 U","route":"bus","to":"Óvalo Grau","type":"route"}},{"id":19972123,"tags":{"check_date":"2025-12-17","fee":"yes","from":"Óvalo Grau","hash":"11098","interval":"5","name":"Óvalo Grau → Av. Julian Arce","network":"Transporte Público Urbano Trujillo","opening_hours":"Mo-Su 05:00-23:00","operator":"EL AGUILA S.A.","public_transport:version":"2","ref":"C-26 U","route":"bus","to":"Av. Julian Arce","type":"route"}},{"id":19972130,"tags":{"check_date":"2025-12-17","fee":"yes","from":"Av. Circunvalación","hash":"12536","interval":"4","name":"Av. Circunvalación → Av. José María Eguren","network":"Transporte Público Urbano Trujillo","opening_hours":"Mo-Su 05:00-23:00","operator":"CABALLITO DE TOTORA S.A.","public_transport:version":"2","ref":"C-27 B","route":"bus","to":"Av. José María Eguren","type":"route"}},{"id":19972154,"tags":{"check_date":"2025-12-17","fee":"yes","from":"Av. José María Eguren","hash":"13319","interval":"4","name":"Av. José María Eguren → Av. Circunvalación","network":"Transporte Público Urbano Trujillo","opening_hours":"Mo-Su 05:00-23:00","operator":"CABALLITO DE TOTORA S.A.","public_transport:version":"2","ref":"C-27 B","route":"bus","to":"Av. Circunvalación","type":"route"}},{"id":19972163,"tags":{"check_date":"2025-12-17","fee":"yes","from":"Sector Cerrito La Virgen","hash":"15423","interval":"12","name":"Sector Cerrito La Virgen → Óvalo Urb. Los Sauces","network":"Transporte Público Urbano Trujillo","opening_hours":"Mo-Su 05:00-23:00","operator":"CABALLITO DE TOTORA S.A.","public_transport:version":"2","ref":"C-28 C","route":"bus","to":"Óvalo Urb. Los Sauces","type":"route"}},{"id":19972176,"tags":{"check_date":"2025-12-17","fee":"yes","from":"Óvalo Urb. Los Sauces","hash":"16204","interval":"12","name":"Óvalo Urb. Los Sauces → Sector Cerrito La Virgen","network":"Transporte Público Urbano Trujillo","opening_hours":"Mo-Su 05:00-23:00","operator":"CABALLITO DE TOTORA S.A.","public_transport:version":"2","ref":"C-28 C","route":"bus","to":"Sector Cerrito La Virgen","type":"route"}},{"id":19972190,"tags":{"check_date":"2025-12-17","fee":"yes","from":"Sector Cerrito La Virgen","hash":"15879","interval":"12","name":"Sector Cerrito La Virgen → Óvalo Urb. Los Sauces","network":"Transporte Público Urbano Trujillo","opening_hours":"Mo-Su 05:04-23:00","operator":"CABALLITO DE TOTORA S.A.","public_transport:version":"2","ref":"C-28 C","route":"bus","to":"Óvalo Urb. Los Sauces","type":"route"}},{"id":19972196,"tags":{"check_date":"2025-12-17","fee":"yes","from":"Óvalo Urb. Los Sauces","hash":"16662","interval":"12","name":"Óvalo Urb. Los Sauces → Sector Cerrito La Virgen","network":"Transporte Público Urbano Trujillo","opening_hours":"Mo-Su 05:04-23:00","operator":"CABALLITO DE TOTORA S.A.","public_transport:version":"2","ref":"C-28 C","route":"bus","to":"Sector Cerrito La Virgen","type":"route"}},{"id":19988797,"tags":{"check_date":"2025-12-17","fee":"yes","from":"Sector Cerrito La Virgen","hash":"18812","interval":"12","name":"Sector Cerrito La Virgen → Óvalo Urb. Los Sauces","network":"Transporte Público Urbano Trujillo","opening_hours":"Mo-Su 05:08-23:00","operator":"CABALLITO DE TOTORA S.A.","public_transport:version":"2","ref":"C-28 C","route":"bus","to":"Óvalo Urb. Los Sauces","type":"route"}},{"id":19988815,"tags":{"check_date":"2025-12-17","fee":"yes","from":"Óvalo Urb. Los Sauces","hash":"13252","interval":"12","name":"Óvalo Urb. Los Sauces → Sector Cerrito La Virgen","network":"Transporte Público Urbano Trujillo","opening_hours":"Mo-Su 05:08-23:00","operator":"CABALLITO DE TOTORA S.A.","public_transport:version":"2","ref":"C-28 C","route":"bus","to":"Sector Cerrito La Virgen","type":"route"}},{"id":19972175,"tags":{"check_date":"2025-12-17","fee":"yes","from":"Sector Las Lomas","hash":"14035","interval":"8","name":"Sector Las Lomas → Urb. Los Sauces de Barraza","network":"Transporte Público Urbano Trujillo","opening_hours":"Mo-Su 05:00-23:00","operator":"CABALLITO DE TOTORA S.A.","public_transport:version":"2","ref":"C-29 A","route":"bus","to":"Urb. Los Sauces de Barraza","type":"route"}},{"id":19972187,"tags":{"check_date":"2025-12-17","fee":"yes","from":"Urb. Los Sauces de Barraza","hash":"14815","interval":"8","name":"Urb. Los Sauces de Barraza → Sector Las Lomas","network":"Transporte Público Urbano Trujillo","opening_hours":"Mo-Su 05:00-23:00","operator":"CABALLITO DE TOTORA S.A.","public_transport:version":"2","ref":"C-29 A","route":"bus","to":"Sector Las Lomas","type":"route"}},{"id":19972422,"tags":{"check_date":"2025-12-17","fee":"yes","from":"Sector Las Lomas","hash":"17085","interval":"8","name":"Sector Las Lomas → Urb. Los Sauces de Barraza","network":"Transporte Público Urbano Trujillo","opening_hours":"Mo-Su 05:04-23:00","operator":"CABALLITO DE TOTORA S.A.","public_transport:version":"2","ref":"C-29 A","route":"bus","to":"Urb. Los Sauces de Barraza","type":"route"}},{"id":19972433,"tags":{"check_date":"2025-12-17","fee":"yes","from":"Urb. Los Sauces de Barraza","hash":"17864","interval":"8","name":"Urb. Los Sauces de Barraza → Sector Las Lomas","network":"Transporte Público Urbano Trujillo","opening_hours":"Mo-Su 05:04-23:00","operator":"CABALLITO DE TOTORA S.A.","public_transport:version":"2","ref":"C-29 A","route":"bus","to":"Sector Las Lomas","type":"route"}},{"id":19972461,"tags":{"check_date":"2025-12-17","fee":"yes","from":"Sector Cushmun","hash":"11946","name":"Sector Cushmun → Av. Los Laureles","network":"Transporte Público Urbano Trujillo","opening_hours":"Mo-Su 05:00-22:00","operator":"BELLO HORIZONTE S.A.","public_transport:version":"2","ref":"C-30 C","route":"bus","to":"Av. Los Laureles","type":"route"}},{"id":19972470,"tags":{"check_date":"2025-12-17","fee":"yes","from":"Av. Los Laureles","hash":"12723","name":"Av. Los Laureles → Sector Cushmun","network":"Transporte Público Urbano Trujillo","opening_hours":"Mo-Su 05:00-22:00","operator":"BELLO HORIZONTE S.A.","public_transport:version":"2","ref":"C-30 C","route":"bus","to":"Sector Cushmun","type":"route"}},{"id":19972473,"tags":{"check_date":"2025-12-17","fee":"yes","from":"Sector Huangabal","hash":"13139","interval":"10","name":"Sector Huangabal → Av. Prolongación Santa","network":"Transporte Público Urbano Trujillo","opening_hours":"Mo-Su 04:15-22:00","operator":"BELLO HORIZONTE S.A.","public_transport:version":"2","ref":"C-31 P","route":"bus","to":"Av. Prolongación Santa","type":"route"}},{"id":19972479,"tags":{"check_date":"2025-12-17","fee":"yes","from":"Av. Prolongación Santa","hash":"13922","interval":"10","name":"Av. Prolongación Santa → Sector Huangabal","network":"Transporte Público Urbano Trujillo","opening_hours":"Mo-Su 04:15-22:00","operator":"BELLO HORIZONTE S.A.","public_transport:version":"2","ref":"C-31 P","route":"bus","to":"Sector Huangabal","type":"route"}},{"id":19972496,"tags":{"check_date":"2025-12-17","fee":"yes","from":"Mucha","hash":"14616","interval":"20","name":"Mucha → Urb. Palermo","network":"Transporte Público Urbano Trujillo","opening_hours":"Mo-Su 04:25-22:00","operator":"BELLO HORIZONTE S.A.","public_transport:version":"2","ref":"C-32 S","route":"bus","to":"Urb. Palermo","type":"route"}},{"id":19972502,"tags":{"check_date":"2025-12-17","fee":"yes","from":"Urb. Palermo","hash":"15381","interval":"20","name":"Urb. Palermo → Mucha","network":"Transporte Público Urbano Trujillo","opening_hours":"Mo-Su 04:25-22:00","operator":"BELLO HORIZONTE S.A.","public_transport:version":"2","ref":"C-32 S","route":"bus","to":"Mucha","type":"route"}},{"id":19990939,"tags":{"check_date":"2025-12-22","fee":"yes","from":"Urb. Palermo","hash":"17447","interval":"20","name":"Urb. Palermo → Sector Collambay","network":"Transporte Público Urbano Trujillo","opening_hours":"Mo-Su 04:15-22:00","operator":"BELLO HORIZONTE S.A.","public_transport:version":"2","ref":"C-32 S","route":"bus","to":"Sector Collambay","type":"route"}},{"id":19991778,"tags":{"check_date":"2025-12-22","fee":"yes","from":"Sector Collambay","hash":"16672","interval":"20","name":"Sector Collambay → Urb. Palermo","network":"Transporte Público Urbano Trujillo","opening_hours":"Mo-Su 04:15-22:00","operator":"BELLO HORIZONTE S.A.","public_transport:version":"2","ref":"C-32 S","route":"bus","to":"Urb. Palermo","type":"route"}},{"id":19972515,"tags":{"check_date":"2025-12-17","fee":"yes","from":"Sector Platanar","hash":"12511","interval":"45","name":"Sector Platanar → Av. America del Sur","network":"Transporte Público Urbano Trujillo","opening_hours":"Mo-Su 05:00-22:00","operator":"SANTA ROSA S.R.L.","public_transport:version":"2","ref":"C-33 P2","route":"bus","to":"Av. America del Sur","type":"route"}},{"id":19972516,"tags":{"check_date":"2025-12-17","fee":"yes","from":"Av. América Sur","hash":"13080","interval":"45","name":"Av. América Sur → Sector Platanar","network":"Transporte Público Urbano Trujillo","opening_hours":"Mo-Su 05:00-22:00","operator":"SANTA ROSA S.R.L.","public_transport:version":"2","ref":"C-33 P2","route":"bus","to":"Sector Platanar","type":"route"}},{"id":19988714,"tags":{"check_date":"2025-12-17","fee":"yes","from":"Sector Platanar","hash":"6997","interval":"45","name":"Sector Platanar → Av. America del Sur","network":"Transporte Público Urbano Trujillo","opening_hours":"Mo-Su 05:00-22:00","operator":"POROTO S.A.","public_transport:version":"2","ref":"C-33 P2","route":"bus","to":"Av. America del Sur","type":"route"}},{"id":19988728,"tags":{"check_date":"2025-12-17","fee":"yes","from":"Av. America del Sur","hash":"7261","interval":"45","name":"Av. America del Sur → Sector Platanar","network":"Transporte Público Urbano Trujillo","opening_hours":"Mo-Su 05:00-22:00","operator":"POROTO S.A.","public_transport:version":"2","ref":"C-33 P2","route":"bus","to":"Sector Platanar","type":"route"}},{"id":19972512,"tags":{"check_date":"2025-12-18","fee":"yes","from":"A.H. Virgen del Socorro","hash":"14483","interval":"4","name":"A.H. Virgen del Socorro → A.H. Virgen del Socorro","network":"Transporte Público Urbano Trujillo","opening_hours":"Mo-Su 05:00-23:00","operator":"LOS GIRASOLES SERVICE S.R.L.","public_transport:version":"2","ref":"C-34 G","route":"bus","to":"A.H. Virgen del Socorro","type":"route"}},{"id":19973941,"tags":{"check_date":"2025-12-17","fee":"yes","from":"A.H. Virgen del Socorro","hash":"15267","interval":"4","name":"A.H. Virgen del Socorro → A.H. Virgen del Socorro","network":"Transporte Público Urbano Trujillo","opening_hours":"Mo-Su 05:00-23:00","operator":"LOS GIRASOLES SERVICE S.R.L.","public_transport:version":"2","ref":"C-34 G","route":"bus","to":"A.H. Virgen del Socorro","type":"route"}},{"id":19972509,"tags":{"check_date":"2025-12-17","fee":"yes","from":"Urb. Buganvillas del Golf","hash":"15428","interval":"4","name":"Urb. Buganvillas del Golf → A.H. Víctor Raúl Haya de La Torre","network":"Transporte Público Urbano Trujillo","opening_hours":"Mo-Su 05:00-23:00","operator":"SEÑOR DE LA MISERICORDIA S.A.","public_transport:version":"2","ref":"C-35 S3","route":"bus","to":"A.H. Víctor Raúl Haya de La Torre","type":"route"}},{"id":19972510,"tags":{"check_date":"2025-12-17","fee":"yes","from":"A.H. Víctor Raúl Haya de La Torre","hash":"14643","interval":"4","name":"A.H. Víctor Raúl Haya de La Torre → Urb. Buganvillas del Golf","network":"Transporte Público Urbano Trujillo","opening_hours":"Mo-Su 05:00-23:00","operator":"SEÑOR DE LA MISERICORDIA S.A.","public_transport:version":"2","ref":"C-35 S3","route":"bus","to":"Urb. Buganvillas del Golf","type":"route"}},{"id":19972504,"tags":{"check_date":"2025-12-17","fee":"yes","from":"Urb. San Andrés 5ta Etapa","hash":"15194","interval":"4","name":"Urb. San Andrés 5ta Etapa → A.H. Víctor Raúl Haya de La Torre","network":"Transporte Público Urbano Trujillo","opening_hours":"Mo-Su 05:00-23:00","operator":"SEÑOR DE LA MISERICORDIA S.A.","public_transport:version":"2","ref":"C-36 Y","route":"bus","to":"A.H. Víctor Raúl Haya de La Torre","type":"route"}},{"id":19972505,"tags":{"check_date":"2025-12-17","fee":"yes","from":"A.H. Víctor Raúl Haya de La Torre","hash":"14418","interval":"4","name":"A.H. Víctor Raúl Haya de La Torre → Urb. San Andrés 5ta Etapa","network":"Transporte Público Urbano Trujillo","opening_hours":"Mo-Su 05:00-23:00","operator":"SEÑOR DE LA MISERICORDIA S.A.","public_transport:version":"2","ref":"C-36 Y","route":"bus","to":"Urb. San Andrés 5ta Etapa","type":"route"}},{"id":19972478,"tags":{"check_date":"2025-12-17","fee":"yes","from":"Av. Luis Condemarín","hash":"16029","interval":"3","name":"Av. Luis Condemarín → Av. Luis Condemarín","network":"Transporte Público Urbano Trujillo","opening_hours":"Mo-Su 05:00-23:00","operator":"CORAZÓN DE JESÚS S.A.C.","public_transport:version":"2","ref":"C-38 S4","route":"bus","to":"Av. Luis Condemarín","type":"route"}},{"id":19988589,"tags":{"check_date":"2025-12-17","fee":"yes","from":"Av. Luis Condemarín","hash":"13393","interval":"3","name":"Av. Luis Condemarín → Av. Luis Condemarín","network":"Transporte Público Urbano Trujillo","opening_hours":"Mo-Su 05:00-23:00","operator":"CORAZÓN DE JESÚS S.A.C.","public_transport:version":"2","ref":"C-38 S4","route":"bus","to":"Av. Luis Condemarín","type":"route"}},{"id":19968040,"tags":{"check_date":"2025-12-16","fee":"yes","from":"Ca. Jirón Santa Isabel","hash":"13111","interval":"8","name":"Ca. Jirón Santa Isabel → Ca. Inca Roca","network":"Transporte Público Urbano Trujillo","opening_hours":"Mo-Su 05:00-23:00","operator":"SAN ISIDRO LABRADOR S.A.","public_transport:version":"2","ref":"C-39 S","route":"bus","to":"Ca. Inca Roca","type":"route"}},{"id":19968053,"tags":{"check_date":"2025-12-16","fee":"yes","from":"Ca. Inca Roca","hash":"13892","interval":"8","name":"Ca. Inca Roca → Ca. Jirón Santa Isabel","network":"Transporte Público Urbano Trujillo","opening_hours":"Mo-Su 05:00-23:00","operator":"SAN ISIDRO LABRADOR S.A.","public_transport:version":"2","ref":"C-39 S","route":"bus","to":"Ca. Jirón Santa Isabel","type":"route"}},{"id":19972474,"tags":{"check_date":"2025-12-17","fee":"yes","from":"Ca. Inca Roca","hash":"13027","interval":"8","name":"Ca. Inca Roca → Ca. Jirón Santa Isabel","network":"Transporte Público Urbano Trujillo","opening_hours":"Mo-Su 05:00-23:00","operator":"MIRAMAR S.A.","public_transport:version":"2","ref":"C-39 S","route":"bus","to":"Ca. Jirón Santa Isabel","type":"route"}},{"id":19972475,"tags":{"check_date":"2025-12-17","fee":"yes","from":"Av. San José","hash":"12069","interval":"8","name":"Av. San José → Ca. Ascencio Vergara","network":"Transporte Público Urbano Trujillo","opening_hours":"Mo-Su 05:00-23:00","operator":"MIRAMAR S.A.","public_transport:version":"2","ref":"C-39 S","route":"bus","to":"Ca. Ascencio Vergara","type":"route"}},{"id":19972458,"tags":{"check_date":"2025-12-17","fee":"yes","from":"Barrio 1B","hash":"10668","interval":"3","name":"Barrio 1B → Av. San José","network":"Transporte Público Urbano Trujillo","opening_hours":"Mo-Su 05:00-23:00","operator":"MIRAMAR S.A.","public_transport:version":"2","ref":"C-40 W","route":"bus","to":"Av. San José","type":"route"}},{"id":19972466,"tags":{"check_date":"2025-12-17","fee":"yes","from":"Av. San José","hash":"9890","interval":"3","name":"Av. San José → Barrio 1B","network":"Transporte Público Urbano Trujillo","opening_hours":"Mo-Su 05:00-23:00","operator":"MIRAMAR S.A.","public_transport:version":"2","ref":"C-40 W","route":"bus","to":"Barrio 1B","type":"route"}},{"id":19967429,"tags":{"check_date":"2025-12-16","fee":"yes","from":"Distrito Huanchaco","hash":"11930","interval":"3","name":"Distrito Huanchaco → Av. Dinamarca","network":"Transporte Público Urbano Trujillo","opening_hours":"Mo-Su 05:00-23:00","operator":"ARCO IRIS EXPRESS S.A.","public_transport:version":"2","ref":"C-41 Z2","route":"bus","to":"Av. Dinamarca","type":"route"}},{"id":19972072,"tags":{"check_date":"2025-12-18","fee":"yes","from":"Av. Dinamarca","hash":"12697","interval":"3","name":"Av. Dinamarca → Distrito Huanchaco","network":"Transporte Público Urbano Trujillo","opening_hours":"Mo-Su 05:00-23:00","operator":"ARCO IRIS EXPRESS S.A.","public_transport:version":"2","ref":"C-41 Z2","route":"bus","to":"Distrito Huanchaco","type":"route"}},{"id":19973224,"tags":{"check_date":"2025-12-17","fee":"yes","from":"Jirón Venezuela","hash":"14685","interval":"5","name":"Jirón Venezuela → Av. Libertad","network":"Transporte Público Urbano Trujillo","opening_hours":"Mo-Su 05:00-23:00","operator":"LOS GIRASOLES SERVICE S.R.L.","public_transport:version":"2","ref":"C-42 B2","route":"bus","to":"Av. Libertad","type":"route"}},{"id":19973251,"tags":{"check_date":"2025-12-17","fee":"yes","from":"Av. Cesar Vallejo","hash":"14181","interval":"5","name":"Av. Cesar Vallejo → Av. Libertad","network":"Transporte Público Urbano Trujillo","opening_hours":"Mo-Su 05:03-23:00","operator":"LOS GIRASOLES SERVICE S.R.L.","public_transport:version":"2","ref":"C-42 B2","route":"bus","to":"Av. Libertad","type":"route"}},{"id":19973922,"tags":{"check_date":"2025-12-17","fee":"yes","from":"Av. Libertad","hash":"14471","interval":"5","name":"Av. Libertad → Av. Cesar Vallejo","network":"Transporte Público Urbano Trujillo","opening_hours":"Mo-Su 05:03-23:00","operator":"LOS GIRASOLES SERVICE S.R.L.","public_transport:version":"2","ref":"C-42 B2","route":"bus","to":"Av. Cesar Vallejo","type":"route"}},{"id":19973932,"tags":{"check_date":"2025-12-17","fee":"yes","from":"Av. Libertad","hash":"15468","interval":"5","name":"Av. Libertad → Jirón Venezuela","network":"Transporte Público Urbano Trujillo","opening_hours":"Mo-Su 05:00-23:00","operator":"LOS GIRASOLES SERVICE S.R.L.","public_transport:version":"2","ref":"C-42 B2","route":"bus","to":"Jirón Venezuela","type":"route"}},{"id":19968174,"tags":{"check_date":"2025-12-16","fee":"yes","from":"Ca. Dieciseis","hash":"10801","interval":"3","name":"Ca. Dieciseis → Av. Miguel Grau","network":"Transporte Público Urbano Trujillo","opening_hours":"Mo-Su 05:00-23:00","operator":"LOS DIAMANTES S.R.L.","public_transport:version":"2","ref":"C-43 A","route":"bus","to":"Av. Miguel Grau","type":"route"}},{"id":19968178,"tags":{"check_date":"2025-12-16","fee":"yes","from":"Av. Miguel Grau","hash":"11582","interval":"3","name":"Av. Miguel Grau → Ca. Dieciseis","network":"Transporte Público Urbano Trujillo","opening_hours":"Mo-Su 05:00-23:00","operator":"LOS DIAMANTES S.R.L.","public_transport:version":"2","ref":"C-43 A","route":"bus","to":"Ca. Dieciseis","type":"route"}},{"id":19972467,"tags":{"check_date":"2025-12-17","fee":"yes","from":"Barrio 1B","hash":"14145","interval":"3","name":"Barrio 1B → Av. San José","network":"Transporte Público Urbano Trujillo","opening_hours":"Mo-Su 05:00-23:00","operator":"MIRAMAR S.A.","public_transport:version":"2","ref":"C-44 T2","route":"bus","to":"Av. San José","type":"route"}},{"id":19972472,"tags":{"check_date":"2025-12-17","fee":"yes","from":"Av. San José","hash":"13364","interval":"3","name":"Av. San José → Barrio 1B","network":"Transporte Público Urbano Trujillo","opening_hours":"Mo-Su 05:00-23:00","operator":"MIRAMAR S.A.","public_transport:version":"2","ref":"C-44 T2","route":"bus","to":"Barrio 1B","type":"route"}},{"id":19977991,"tags":{"check_date":"2025-12-17","fee":"yes","from":"Barrio 1B","hash":"13314","interval":"3","name":"Barrio 1B → Av. San José","network":"Transporte Público Urbano Trujillo","opening_hours":"Mo-Su 05:00-23:00","operator":"MIRAMAR S.A.","public_transport:version":"2","ref":"C-44 T2","route":"bus","to":"Av. San José","type":"route"}},{"id":19968129,"tags":{"check_date":"2025-12-16","fee":"yes","from":"Av. 12 de Noviembre","hash":"12165","interval":"4","name":"Av. 12 de Noviembre → Ca. Miguiel Graú","network":"Transporte Público Urbano Trujillo","opening_hours":"Mo-Su 05:00-23:00","operator":"MOCHICA S.A.","public_transport:version":"2","ref":"C-45 C","route":"bus","to":"Ca. Miguiel Graú","type":"route"}},{"id":19968140,"tags":{"check_date":"2025-12-16","fee":"yes","from":"Ca. Miguiel Graú","hash":"12935","interval":"4","name":"Ca. Miguiel Graú → Av. 12 de Noviembre","network":"Transporte Público Urbano Trujillo","opening_hours":"Mo-Su 05:00-23:00","operator":"MOCHICA S.A.","public_transport:version":"2","ref":"C-45 C","route":"bus","to":"Av. 12 de Noviembre","type":"route"}},{"id":19990157,"tags":{"check_date":"2025-12-22","fee":"yes","from":"Ca. Miguiel Graú","hash":"12616","interval":"4","name":"Ca. Miguiel Graú → Av. 12 de Noviembre","network":"Transporte Público Urbano Trujillo","opening_hours":"Mo-Su 05:00-23:00","operator":"LOS DIAMANTES S.R.L.","public_transport:version":"2","ref":"C-45 C","route":"bus","to":"Av. 12 de Noviembre","type":"route"}},{"id":19990165,"tags":{"check_date":"2025-12-22","fee":"yes","from":"Ca. Miguiel Graú","hash":"13392","interval":"4","name":"Ca. Miguiel Graú → Av. 12 de Noviembre","network":"Transporte Público Urbano Trujillo","opening_hours":"Mo-Su 05:00-23:00","operator":"LOS DIAMANTES S.R.L.","public_transport:version":"2","ref":"C-45 C","route":"bus","to":"Av. 12 de Noviembre","type":"route"}},{"id":19946662,"tags":{"check_date":"2025-12-18","fee":"yes","from":"Via Panamericana Norte","hash":"15125","interval":"3","name":"Via Panamericana Norte → Av. Manuel Seoane","network":"Transporte Público Urbano Trujillo","opening_hours":"Mo-Su 05:00-23:00","operator":"CALIFORNIA S.A.","public_transport:version":"2","ref":"M-01 C","route":"bus","to":"Av. Manuel Seoane","type":"route"}},{"id":19946938,"tags":{"check_date":"2025-12-10","fee":"yes","from":"Av. Manuel Seoane","hash":"15573","interval":"3","name":"Av. Manuel Seoane → Via Panamericana Norte","network":"Transporte Público Urbano Trujillo","opening_hours":"Mo-Su 05:00-23:00","operator":"CALIFORNIA S.A.","public_transport:version":"2","ref":"M-01 C","route":"bus","to":"Via Panamericana Norte","type":"route"}},{"id":19950139,"tags":{"check_date":"2025-12-18","fee":"yes","from":"Ca. Turquesas","hash":"21382","interval":"3","name":"Ca. Turquesas → Av. Manuel Seoane","network":"Transporte Público Urbano Trujillo","opening_hours":"Mo-Su 05:00-23:00","operator":"CALIFORNIA S.A.","public_transport:version":"2","ref":"M-02 A","route":"bus","to":"Av. Manuel Seoane","type":"route"}},{"id":19950214,"tags":{"check_date":"2025-12-11","fee":"yes","from":"Av. Manuel Seoane","hash":"18318","interval":"3","name":"Av. Manuel Seoane → Ca. Turquesas","network":"Transporte Público Urbano Trujillo","opening_hours":"Mo-Su 05:00-23:00","operator":"CALIFORNIA S.A.","public_transport:version":"2","ref":"M-02 A","route":"bus","to":"Ca. Turquesas","type":"route"}},{"id":19953369,"tags":{"check_date":"2025-12-11","fee":"yes","from":"A.H. Ciudad de Dios","hash":"16639","interval":"3","name":"A.H. Ciudad de Dios → A.H. Ciudad de Dios","network":"Transporte Público Urbano Trujillo","opening_hours":"Mo-Su 05:00-23:00","operator":"CALIFORNIA S.A.","public_transport:version":"2","ref":"M-03 B","route":"bus","to":"A.H. Ciudad de Dios","type":"route"}},{"id":19953601,"tags":{"check_date":"2025-12-12","fee":"yes","from":"A.H. Cerro La Virgen","hash":"11868","interval":"5","name":"A.H. Cerro La Virgen → A.H. Cerro La Virgen","network":"Transporte Público Urbano Trujillo","opening_hours":"Mo-Su 05:50-22:00","operator":"HUANCHACO S.A.","public_transport:version":"2","ref":"M-04 A","route":"bus","to":"A.H. Cerro La Virgen","type":"route"}},{"id":19976312,"tags":{"check_date":"2025-12-18","fee":"yes","from":"A.H. Cerro La Virgen","hash":"12591","interval":"5","name":"A.H. Cerro La Virgen → A.H. Cerro La Virgen","network":"Transporte Público Urbano Trujillo","opening_hours":"Mo-Su 05:50-22:00","operator":"HUANCHACO S.A.","public_transport:version":"2","ref":"M-04 A","route":"bus","to":"A.H. Cerro La Virgen","type":"route"}},{"id":19959151,"tags":{"check_date":"2025-12-12","fee":"yes","from":"Av. la Paz","hash":"12434","interval":"2.5","name":"Av. la Paz → Av. la Paz","network":"Transporte Público Urbano Trujillo","opening_hours":"Mo-Su 05:00-23:00","operator":"HUANCHACO S.A.","public_transport:version":"2","ref":"M-05 H","route":"bus","to":"Av. la Paz","type":"route"}},{"id":19975974,"tags":{"check_date":"2025-12-18","fee":"yes","from":"Av. la Paz","hash":"13414","interval":"2.5","name":"Av. la Paz → Av. la Paz","network":"Transporte Público Urbano Trujillo","opening_hours":"Mo-Su 05:00-23:00","operator":"HUANCHACO S.A.","public_transport:version":"2","ref":"M-05 H","route":"bus","to":"Av. la Paz","type":"route"}},{"id":19959184,"tags":{"check_date":"2025-12-12","fee":"yes","from":"Av. la Paz","hash":"13869","interval":"6","name":"Av. la Paz → Av. Victor Raul Haya de la Torre","network":"Transporte Público Urbano Trujillo","opening_hours":"Mo-Su 05:00-23:00","operator":"HUANCHACO S.A.","public_transport:version":"2","ref":"M-06 B","route":"bus","to":"Av. Victor Raul Haya de la Torre","type":"route"}},{"id":19959196,"tags":{"check_date":"2025-12-12","fee":"yes","from":"Av. Victor Larco Herrera","hash":"14042","interval":"6","name":"Av. Victor Larco Herrera → Av. la Paz","network":"Transporte Público Urbano Trujillo","opening_hours":"Mo-Su 05:00-23:00","operator":"HUANCHACO S.A.","public_transport:version":"2","ref":"M-06 B","route":"bus","to":"Av. la Paz","type":"route"}},{"id":19959202,"tags":{"check_date":"2025-12-12","fee":"yes","from":"Av. Libertad","hash":"11679","interval":"4","name":"Av. Libertad → Av. San Pedro","network":"Transporte Público Urbano Trujillo","opening_hours":"Mo-Su 05:00-23:00","operator":"NUEVO CALIFORNIA S.A.","public_transport:version":"2","ref":"M-07 V","route":"bus","to":"Av. San Pedro","type":"route"}},{"id":19959207,"tags":{"check_date":"2025-12-12","fee":"yes","from":"Av. San Pedro","hash":"12461","interval":"4","name":"Av. San Pedro → Av. Libertad","network":"Transporte Público Urbano Trujillo","opening_hours":"Mo-Su 05:00-23:00","operator":"NUEVO CALIFORNIA S.A.","public_transport:version":"2","ref":"M-07 V","route":"bus","to":"Av. Libertad","type":"route"}},{"id":19959214,"tags":{"check_date":"2025-12-12","fee":"yes","from":"Av. Libertad","hash":"12447","interval":"4","name":"Av. Libertad → Via Panamericana Norte","network":"Transporte Público Urbano Trujillo","opening_hours":"Mo-Su 04:30-23:00","operator":"NUEVO CALIFORNIA S.A.","public_transport:version":"2","ref":"M-08 A","route":"bus","to":"Via Panamericana Norte","type":"route"}},{"id":19959217,"tags":{"check_date":"2025-12-12","fee":"yes","from":"Via Panamericana Norte","hash":"13227","interval":"4","name":"Via Panamericana Norte → Av. Libertad","network":"Transporte Público Urbano Trujillo","opening_hours":"Mo-Su 04:30-23:00","operator":"NUEVO CALIFORNIA S.A.","public_transport:version":"2","ref":"M-08 A","route":"bus","to":"Av. Libertad","type":"route"}},{"id":19959224,"tags":{"check_date":"2025-12-12","fee":"yes","from":"Av. Libertad","hash":"11884","interval":"4","name":"Av. Libertad → Av. San Pedro","network":"Transporte Público Urbano Trujillo","opening_hours":"Mo-Su 04:30-23:00","operator":"NUEVO CALIFORNIA S.A.","public_transport:version":"2","ref":"M-09 BC","route":"bus","to":"Av. San Pedro","type":"route"}},{"id":19961769,"tags":{"check_date":"2025-12-12","fee":"yes","from":"Av. San Pedro","hash":"12668","interval":"4","name":"Av. San Pedro → Av. Libertad","network":"Transporte Público Urbano Trujillo","opening_hours":"Mo-Su 04:30-23:00","operator":"NUEVO CALIFORNIA S.A.","public_transport:version":"2","ref":"M-09 BC","route":"bus","to":"Av. Libertad","type":"route"}},{"id":19961792,"tags":{"check_date":"2025-12-12","fee":"yes","from":"Av. Libertad","hash":"17809","interval":"8","name":"Av. Libertad → Av. Los Tulipanes","network":"Transporte Público Urbano Trujillo","opening_hours":"Mo-Su 04:30-23:00","operator":"NUEVO CALIFORNIA S.A.","public_transport:version":"2","ref":"M-10 B1","route":"bus","to":"Av. Los Tulipanes","type":"route"}},{"id":19961795,"tags":{"check_date":"2025-12-12","fee":"yes","from":"Av. Los Tulipanes","hash":"18589","interval":"8","name":"Av. Los Tulipanes → Av. Libertad","network":"Transporte Público Urbano Trujillo","opening_hours":"Mo-Su 04:30-23:00","operator":"NUEVO CALIFORNIA S.A.","public_transport:version":"2","ref":"M-10 B1","route":"bus","to":"Av. Libertad","type":"route"}},{"id":19966193,"tags":{"check_date":"2025-12-12","fee":"yes","from":"Av. Libertad","hash":"19403","interval":"8","name":"Av. Libertad → Av. Los Tulipanes","network":"Transporte Público Urbano Trujillo","opening_hours":"Mo-Su 04:34-23:00","operator":"NUEVO CALIFORNIA S.A.","public_transport:version":"2","ref":"M-10 B1","route":"bus","to":"Av. Los Tulipanes","type":"route"}},{"id":19966196,"tags":{"check_date":"2025-12-12","fee":"yes","from":"Av. Los Tulipanes","hash":"20183","interval":"8","name":"Av. Los Tulipanes → Av. Libertad","network":"Transporte Público Urbano Trujillo","opening_hours":"Mo-Su 04:34-23:00","operator":"NUEVO CALIFORNIA S.A.","public_transport:version":"2","ref":"M-10 B1","route":"bus","to":"Av. Libertad","type":"route"}},{"id":19961869,"tags":{"check_date":"2025-12-12","fee":"yes","from":"Av. San Pedro","hash":"12570","interval":"4","name":"Av. San Pedro → Via Panamericana Norte","network":"Transporte Público Urbano Trujillo","opening_hours":"Mo-Su 05:00-23:00","operator":"NUEVO CALIFORNIA S.A.","public_transport:version":"2","ref":"M-11 D","route":"bus","to":"Via Panamericana Norte","type":"route"}},{"id":19961898,"tags":{"check_date":"2025-12-12","fee":"yes","from":"Via Panamericana Norte","hash":"13349","interval":"4","name":"Via Panamericana Norte → Av. San Pedro","network":"Transporte Público Urbano Trujillo","opening_hours":"Mo-Su 05:00-23:00","operator":"NUEVO CALIFORNIA S.A.","public_transport:version":"2","ref":"M-11 D","route":"bus","to":"Av. San Pedro","type":"route"}},{"id":19961919,"tags":{"check_date":"2025-12-12","fee":"yes","from":"Av. Libertad","hash":"12493","interval":"3","name":"Av. Libertad → Via Panamericana Norte","network":"Transporte Público Urbano Trujillo","opening_hours":"Mo-Su 05:00-23:00","operator":"NUEVO CALIFORNIA S.A.","public_transport:version":"2","ref":"M-12 C","route":"bus","to":"Via Panamericana Norte","type":"route"}},{"id":19961936,"tags":{"check_date":"2025-12-12","fee":"yes","from":"Via Panamericana Norte","hash":"13269","interval":"3","name":"Via Panamericana Norte → Av. Libertad","network":"Transporte Público Urbano Trujillo","opening_hours":"Mo-Su 05:00-23:00","operator":"NUEVO CALIFORNIA S.A.","public_transport:version":"2","ref":"M-12 C","route":"bus","to":"Av. Libertad","type":"route"}},{"id":19971942,"tags":{"check_date":"2025-12-17","fee":"yes","from":"A.H. Ciudad de Dios","hash":"14953","interval":"4","name":"A.H. Ciudad de Dios → A.H. Ciudad de Dios","network":"Transporte Público Urbano Trujillo","opening_hours":"Mo-Su 05:00-23:00","operator":"EL CORTIJO S.A.","public_transport:version":"2","ref":"M-13 C1","route":"bus","to":"A.H. Ciudad de Dios","type":"route"}},{"id":19972938,"tags":{"fee":"yes","from":"A.H. Ciudad de Dios","hash":"13926","interval":"4","name":"A.H. Ciudad de Dios → A.H. Ciudad de Dios","network":"Transporte Público Urbano Trujillo","opening_hours":"Mo-Su 05:00-23:00","operator":"EL CORTIJO S.A.","public_transport:version":"2","ref":"M-13 C1","route":"bus","to":"A.H. Ciudad de Dios","type":"route"}},{"id":19961962,"tags":{"check_date":"2025-12-12","fee":"yes","from":"A.H. Ciudad de Dios","hash":"11654","interval":"4","name":"A.H. Ciudad de Dios → Óvalo Larco","network":"Transporte Público Urbano Trujillo","opening_hours":"Mo-Su 05:00-23:00","operator":"EL CORTIJO S.A.","public_transport:version":"2","ref":"M-14 C3","route":"bus","to":"Óvalo Larco","type":"route"}},{"id":19971967,"tags":{"check_date":"2025-12-18","fee":"yes","from":"Óvalo Larco","hash":"12437","interval":"4","name":"Óvalo Larco → A.H. Ciudad de Dios","network":"Transporte Público Urbano Trujillo","opening_hours":"Mo-Su 05:00-23:00","operator":"EL CORTIJO S.A.","public_transport:version":"2","ref":"M-14 C3","route":"bus","to":"A.H. Ciudad de Dios","type":"route"}},{"id":19971999,"tags":{"check_date":"2025-12-18","fee":"yes","from":"A.H. Ciudad de Dios","hash":"14332","interval":"3","name":"A.H. Ciudad de Dios → Sector Santa María Alta","network":"Transporte Público Urbano Trujillo","opening_hours":"Mo-Su 05:00-23:00","operator":"EL CORTIJO S.A.","public_transport:version":"2","ref":"M-15 C2","route":"bus","to":"Sector Santa María Alta","type":"route"}},{"id":19976301,"tags":{"check_date":"2025-12-17","fee":"yes","fixme":"Se termin la ruta en la calle Mochica ´","from":"Sector Santa María Alta","hash":"15225","interval":"3","name":"Sector Santa María Alta → A.H. Ciudad de Dios","network":"Transporte Público Urbano Trujillo","opening_hours":"Mo-Su 05:00-23:00","operator":"EL CORTIJO S.A.","public_transport:version":"2","ref":"M-15 C2","route":"bus","to":"A.H. Ciudad de Dios","type":"route"}},{"id":19962130,"tags":{"check_date":"2025-12-14","fee":"yes","from":"Av. Vallejo","hash":"10591","interval":"5","name":"Av. Vallejo → Ca. 8","network":"Transporte Público Urbano Trujillo","opening_hours":"Mo-Su 05:00-23:00","operator":"MODERNO CIELO AZUL S.A.","public_transport:version":"2","ref":"M-16 C","route":"bus","to":"Ca. 8","type":"route"}},{"id":19962183,"tags":{"check_date":"2025-12-14","fee":"yes","from":"Ca. 8","hash":"11376","interval":"5","name":"Ca. 8 → Av. Vallejo","network":"Transporte Público Urbano Trujillo","opening_hours":"Mo-Su 05:00-23:00","operator":"MODERNO CIELO AZUL S.A.","public_transport:version":"2","ref":"M-16 C","route":"bus","to":"Av. Vallejo","type":"route"}},{"id":19972901,"tags":{"check_date":"2025-12-17","fee":"yes","from":"Av. Dos","hash":"15102","interval":"6","name":"Av. Dos → Av. Dos","network":"Transporte Público Urbano Trujillo","opening_hours":"Mo-Su 05:00-23:00","operator":"LIBERTAD S.A.","public_transport:version":"2","ref":"M-17 C2","route":"bus","to":"Av. Dos","type":"route"}},{"id":19976337,"tags":{"check_date":"2025-12-18","fee":"yes","from":"Av. Dos","hash":"14184","interval":"6","name":"Av. Dos → Av. Dos","network":"Transporte Público Urbano Trujillo","opening_hours":"Mo-Su 05:00-23:00","operator":"LIBERTAD S.A.","public_transport:version":"2","ref":"M-17 C2","route":"bus","to":"Av. Dos","type":"route"}},{"id":19962204,"tags":{"check_date":"2025-12-18","fee":"yes","from":"Av. Dos","hash":"11324","interval":"6","name":"Av. Dos → Av. Dos","network":"Transporte Público Urbano Trujillo","opening_hours":"Mo-Su 05:00-23:00","operator":"LIBERTAD S.A.","public_transport:version":"2","ref":"M-18 C1","route":"bus","to":"Av. Dos","type":"route"}},{"id":19973156,"tags":{"check_date":"2025-12-18","fee":"yes","from":"Av. Dos","hash":"15145","interval":"6","name":"Av. Dos → Av. Dos","network":"Transporte Público Urbano Trujillo","opening_hours":"Mo-Su 05:00-23:00","operator":"LIBERTAD S.A.","public_transport:version":"2","ref":"M-18 C1","route":"bus","to":"Av. Dos","type":"route"}},{"id":19962194,"tags":{"check_date":"2025-12-18","fee":"yes","from":"Manzana Ñ","hash":"12539","interval":"3","name":"Manzana Ñ → Ca. 8","network":"Transporte Público Urbano Trujillo","opening_hours":"Mo-Su 05:00-23:00","operator":"LIBERTAD S.A.","public_transport:version":"2","ref":"M-19 A","route":"bus","to":"Ca. 8","type":"route"}},{"id":19962272,"tags":{"check_date":"2025-12-14","fee":"yes","from":"Ca. 8","hash":"13313","interval":"3","name":"Ca. 8 → Manzana Ñ","network":"Transporte Público Urbano Trujillo","opening_hours":"Mo-Su 05:00-23:00","operator":"LIBERTAD S.A.","public_transport:version":"2","ref":"M-19 A","route":"bus","to":"Manzana Ñ","type":"route"}},{"id":19962213,"tags":{"check_date":"2025-12-14","fee":"yes","from":"Sector Nuevo Horizonte","hash":"17663","interval":"10","name":"Sector Nuevo Horizonte → Av. 12 de Noviembre","network":"Transporte Público Urbano Trujillo","opening_hours":"Mo-Su 05:00-23:00","operator":"SALAVERRY EXPRESS S.A.","public_transport:version":"2","ref":"M-20 C","route":"bus","to":"Av. 12 de Noviembre","type":"route"}},{"id":19962218,"tags":{"check_date":"2025-12-14","fee":"yes","from":"Sector Nuevo Horizonte","hash":"18818","interval":"10","name":"Sector Nuevo Horizonte → Av. 12 de Noviembre","network":"Transporte Público Urbano Trujillo","opening_hours":"Mo-Su 05:05-23:00","operator":"SALAVERRY EXPRESS S.A.","public_transport:version":"2","ref":"M-20 C","route":"bus","to":"Av. 12 de Noviembre","type":"route"}},{"id":19962222,"tags":{"check_date":"2025-12-14","fee":"yes","from":"Av. 12 de Noviembre","hash":"16886","interval":"10","name":"Av. 12 de Noviembre → Sector Nuevo Horizonte","network":"Transporte Público Urbano Trujillo","opening_hours":"Mo-Su 05:00-23:00","operator":"SALAVERRY EXPRESS S.A.","public_transport:version":"2","ref":"M-20 C","route":"bus","to":"Sector Nuevo Horizonte","type":"route"}},{"id":19962228,"tags":{"check_date":"2025-12-14","fee":"yes","from":"Av. 12 de Noviembre","hash":"19596","interval":"10","name":"Av. 12 de Noviembre → Sector Nuevo Horizonte","network":"Transporte Público Urbano Trujillo","opening_hours":"Mo-Su 05:05-23:00","operator":"SALAVERRY EXPRESS S.A.","public_transport:version":"2","ref":"M-20 C","route":"bus","to":"Sector Nuevo Horizonte","type":"route"}},{"id":19962230,"tags":{"check_date":"2025-12-18","fee":"yes","from":"Av. 12 de Noviembre","hash":"16981","interval":"5","name":"Av. 12 de Noviembre → Sector Nuevo Horizonte","network":"Transporte Público Urbano Trujillo","opening_hours":"Mo-Su 05:00-23:00","operator":"SALAVERRY EXPRESS S.A.","public_transport:version":"2","ref":"M-21 A","route":"bus","to":"Sector Nuevo Horizonte","type":"route"}},{"id":19962257,"tags":{"check_date":"2025-12-18","fee":"yes","from":"Sector Nuevo Horizonte","hash":"17767","interval":"5","name":"Sector Nuevo Horizonte → Av. 12 de Noviembre","network":"Transporte Público Urbano Trujillo","opening_hours":"Mo-Su 05:00-23:00","operator":"SALAVERRY EXPRESS S.A.","public_transport:version":"2","ref":"M-21 A","route":"bus","to":"Av. 12 de Noviembre","type":"route"}},{"id":19976195,"tags":{"check_date":"1","fee":"yes","from":"Av. 12 de Noviembre","hash":"18974","interval":"5","name":"Av. 12 de Noviembre → Sector Nuevo Horizonte","network":"Transporte Público Urbano Trujillo","opening_hours":"Mo-Su 05:00-23:00","operator":"SALAVERRY EXPRESS S.A.","public_transport:version":"2","ref":"M-21 A","route":"bus","to":"Sector Nuevo Horizonte","type":"route"}},{"id":19962263,"tags":{"check_date":"2025-12-18","fee":"yes","from":"Av. 12 de Noviembre","hash":"16149","interval":"5","name":"Av. 12 de Noviembre → Av. Juan Pablo II","network":"Transporte Público Urbano Trujillo","opening_hours":"Mo-Su 05:00-23:00","operator":"SALAVERRY EXPRESS S.A.","public_transport:version":"2","ref":"M-22 F","route":"bus","to":"Av. Juan Pablo II","type":"route"}},{"id":19962271,"tags":{"check_date":"2025-12-14","fee":"yes","from":"Av. Juan Pablo II","hash":"18348","interval":"5","name":"Av. Juan Pablo II → Prolongación Av. 12 de Noviembre","network":"Transporte Público Urbano Trujillo","opening_hours":"Mo-Su 05:00-23:00","operator":"SALAVERRY EXPRESS S.A.","public_transport:version":"2","ref":"M-22 F","route":"bus","to":"Prolongación Av. 12 de Noviembre","type":"route"}},{"id":19962287,"tags":{"check_date":"2025-12-14","fee":"yes","from":"Ca. Atahualpa","hash":"18855","interval":"9","name":"Ca. Atahualpa → Ca. Pedro Ruiz Gallo","network":"Transporte Público Urbano Trujillo","opening_hours":"Mo-Su 05:00-23:00","operator":"VIRGEN DE LA PUERTA S.A.","public_transport:version":"2","ref":"M-23 B","route":"bus","to":"Ca. Pedro Ruiz Gallo","type":"route"}},{"id":19962292,"tags":{"check_date":"2025-12-14","fee":"yes","from":"Ca. Pedro Ruiz Gallo","hash":"19628","interval":"9","name":"Ca. Pedro Ruiz Gallo → Ca. Atahualpa","network":"Transporte Público Urbano Trujillo","opening_hours":"Mo-Su 05:00-23:00","operator":"VIRGEN DE LA PUERTA S.A.","public_transport:version":"2","ref":"M-23 B","route":"bus","to":"Ca. Atahualpa","type":"route"}},{"id":19962294,"tags":{"check_date":"2025-12-14","fee":"yes","from":"Ca. Pedro Ruiz Gallo","hash":"17264","interval":"9","name":"Ca. Pedro Ruiz Gallo → Ca. 7 de Julio","network":"Transporte Público Urbano Trujillo","opening_hours":"Mo-Su 05:03-23:00","operator":"VIRGEN DE LA PUERTA S.A.","public_transport:version":"2","ref":"M-23 B","route":"bus","to":"Ca. 7 de Julio","type":"route"}},{"id":19962298,"tags":{"check_date":"2025-12-14","fee":"yes","from":"Ca. 7 de Julio","hash":"18045","interval":"9","name":"Ca. 7 de Julio → Ca. Pedro Ruiz Gallo","network":"Transporte Público Urbano Trujillo","opening_hours":"Mo-Su 05:03-23:00","operator":"VIRGEN DE LA PUERTA S.A.","public_transport:version":"2","ref":"M-23 B","route":"bus","to":"Ca. Pedro Ruiz Gallo","type":"route"}},{"id":19962300,"tags":{"check_date":"2025-12-14","fee":"yes","from":"Ca. Pedro Ruiz Gallo","hash":"21002","interval":"9","name":"Ca. Pedro Ruiz Gallo → Via Evitamiento Milagro","network":"Transporte Público Urbano Trujillo","opening_hours":"Mo-Su 05:06-23:00","operator":"VIRGEN DE LA PUERTA S.A.","public_transport:version":"2","ref":"M-23 B","route":"bus","to":"Via Evitamiento Milagro","type":"route"}},{"id":19962303,"tags":{"check_date":"2025-12-14","fee":"yes","from":"Via Evitamiento Milagro","hash":"21782","interval":"9","name":"Via Evitamiento Milagro → Ca. Pedro Ruiz Gallo","network":"Transporte Público Urbano Trujillo","opening_hours":"Mo-Su 05:06-23:00","operator":"VIRGEN DE LA PUERTA S.A.","public_transport:version":"2","ref":"M-23 B","route":"bus","to":"Ca. Pedro Ruiz Gallo","type":"route","vía":"1458629288 # Jirón Desamparados (2 nodos)"}},{"id":19962313,"tags":{"check_date":"2025-12-14","fee":"yes","from":"Ca. Pedro Ruiz Gallo","hash":"20387","interval":"9","name":"Ca. Pedro Ruiz Gallo → Via Evitamiento Milagro","network":"Transporte Público Urbano Trujillo","opening_hours":"Mo-Su 05:09-23:00","operator":"VIRGEN DE LA PUERTA S.A.","public_transport:version":"2","ref":"M-23 B","route":"bus","to":"Via Evitamiento Milagro","type":"route"}},{"id":19962315,"tags":{"check_date":"2025-12-14","fee":"yes","from":"Via Evitamiento Milagro","hash":"21166","interval":"9","name":"Via Evitamiento Milagro → Ca. Pedro Ruiz Gallo","network":"Transporte Público Urbano Trujillo","opening_hours":"Mo-Su 05:09-23:00","operator":"VIRGEN DE LA PUERTA S.A.","public_transport:version":"2","ref":"M-23 B","route":"bus","to":"Ca. Pedro Ruiz Gallo","type":"route"}},{"id":19962362,"tags":{"check_date":"2025-12-18","fee":"yes","from":"Ca. Liverpool","hash":"11245","interval":"4","name":"Ca. Liverpool → Ca. F","network":"Transporte Público Urbano Trujillo","opening_hours":"Mo-Su 05:00-23:00","operator":"ALTO TRUJILLO S.A.","public_transport:version":"2","ref":"M-25 A","route":"bus","to":"Ca. F","type":"route"}},{"id":19962394,"tags":{"check_date":"2025-12-18","fee":"yes","from":"Ca. F","hash":"10473","interval":"4","name":"Ca. F → Ca. Liverpool","network":"Transporte Público Urbano Trujillo","opening_hours":"Mo-Su 05:00-23:00","operator":"ALTO TRUJILLO S.A.","public_transport:version":"2","ref":"M-25 A","route":"bus","to":"Ca. Liverpool","type":"route"}},{"id":19962432,"tags":{"check_date":"2025-12-18","fee":"yes","from":"Futuro Barrio 5C","hash":"13744","interval":"5","name":"Futuro Barrio 5C → Ca. Alfonso Ugarte","network":"Transporte Público Urbano Trujillo","opening_hours":"Mo-Su 05:00-23:00","operator":"ALTO TRUJILLO S.A.","public_transport:version":"2","ref":"M-26 B","route":"bus","to":"Ca. Alfonso Ugarte","type":"route"}},{"id":19971395,"tags":{"check_date":"2025-12-18","fee":"yes","from":"Ca. Alfonso Ugarte","hash":"14721","interval":"5","name":"Ca. Alfonso Ugarte → Futuro Barrio 5C","network":"Transporte Público Urbano Trujillo","opening_hours":"Mo-Su 05:00-23:00","operator":"ALTO TRUJILLO S.A.","public_transport:version":"2","ref":"M-26 B","route":"bus","to":"Futuro Barrio 5C","type":"route"}},{"id":19971408,"tags":{"check_date":"2025-12-18","fee":"yes","from":"Av. Libertad","hash":"11322","interval":"4","name":"Av. Libertad → Av. Libertad","network":"Transporte Público Urbano Trujillo","opening_hours":"Mo-Su 05:00-23:00","operator":"CESAR VALLEJO S.A.","public_transport:version":"2","ref":"M-27 AB","route":"bus","to":"Av. Libertad","type":"route"}},{"id":19971409,"tags":{"check_date":"2025-12-18","fee":"yes","from":"Av. Libertad","hash":"12100","interval":"4","name":"Av. Libertad → Av. Libertad","network":"Transporte Público Urbano Trujillo","opening_hours":"Mo-Su 05:00-23:00","operator":"CESAR VALLEJO S.A.","public_transport:version":"2","ref":"M-27 AB","route":"bus","to":"Av. Libertad","type":"route"}},{"id":19962280,"tags":{"check_date":"2025-12-14","fee":"yes","from":"A.H. Primavera III","hash":"16331","interval":"6","name":"A.H. Primavera III → Av. los Pajuiles","network":"Transporte Público Urbano Trujillo","opening_hours":"Mo-Su 04:45-23:00","operator":"SALAVERRY EXPRESS S.A.","public_transport:version":"2","ref":"M-28 A","route":"bus","to":"Av. los Pajuiles","type":"route"}},{"id":19962320,"tags":{"check_date":"2025-12-14","fee":"yes","from":"Av. los Pajuiles","hash":"17103","interval":"6","name":"Av. los Pajuiles → A.H. Primavera III","network":"Transporte Público Urbano Trujillo","opening_hours":"Mo-Su 04:45-23:00","operator":"SALAVERRY EXPRESS S.A.","public_transport:version":"2","ref":"M-28 A","route":"bus","to":"A.H. Primavera III","type":"route"}},{"id":19971413,"tags":{"fee":"yes","from":"A.H. Primavera III","hash":"13332","interval":"6","name":"A.H. Primavera III → Av. los Pajuiles","network":"Transporte Público Urbano Trujillo","opening_hours":"Mo-Su 04:45-23:00","operator":"RAMIRO PRIALE S.A.","public_transport:version":"2","ref":"M-28 A","route":"bus","to":"Av. los Pajuiles","type":"route"}},{"id":19971417,"tags":{"fee":"yes","from":"Av. los Pajuiles","hash":"14113","interval":"6","name":"Av. los Pajuiles → A.H. Primavera III","network":"Transporte Público Urbano Trujillo","opening_hours":"Mo-Su 04:45-23:00","operator":"RAMIRO PRIALE S.A.","public_transport:version":"2","ref":"M-28 A","route":"bus","to":"A.H. Primavera III","type":"route"}},{"id":19962502,"tags":{"check_date":"2025-12-18","fee":"yes","from":"A.H. Primavera","hash":"11331","interval":"4","name":"A.H. Primavera → Ca. Liverpool","network":"Transporte Público Urbano Trujillo","opening_hours":"Mo-Su 05:00-23:00","operator":"RAMIRO PRIALE S.A.","public_transport:version":"2","ref":"M-29 B","route":"bus","to":"Ca. Liverpool","type":"route"}},{"id":19972008,"tags":{"check_date":"2025-12-18","fee":"yes","from":"Ca. Liverpool","hash":"12110","interval":"4","name":"Ca. Liverpool → A.H. Primavera","network":"Transporte Público Urbano Trujillo","opening_hours":"Mo-Su 05:00-23:00","operator":"RAMIRO PRIALE S.A.","public_transport:version":"2","ref":"M-29 B","route":"bus","to":"A.H. Primavera","type":"route"}},{"id":19972010,"tags":{"check_date":"2025-12-18","fee":"yes","from":"Ca. 11","hash":"13501","interval":"4","name":"Ca. 11 → Ca. César Vallejo","network":"Transporte Público Urbano Trujillo","opening_hours":"Mo-Su 05:00-23:00","operator":"SEÑOR DE LOS MILAGROS S.A","public_transport:version":"2","ref":"M-30 D","route":"bus","to":"Ca. César Vallejo","type":"route"}},{"id":19972018,"tags":{"check_date":"2025-12-18","fee":"yes","from":"Ca. César Vallejo","hash":"14478","interval":"4","name":"Ca. César Vallejo → Ca. 11","network":"Transporte Público Urbano Trujillo","opening_hours":"Mo-Su 05:00-23:00","operator":"SEÑOR DE LOS MILAGROS S.A","public_transport:version":"2","ref":"M-30 D","route":"bus","to":"Ca. 11","type":"route"}},{"id":19965057,"tags":{"check_date":"2025-12-18","fee":"yes","from":"Av. América Sur","hash":"17717","interval":"6","name":"Av. América Sur → Ca. Nuevo Indoamérica","network":"Transporte Público Urbano Trujillo","opening_hours":"Mo-Su 05:00-23:00","operator":"SEÑOR DE LOS MILAGROS S.A","public_transport:version":"2","ref":"M-31 A","route":"bus","to":"Ca. Nuevo Indoamérica","type":"route"}},{"id":19972027,"tags":{"check_date":"2025-12-18","fee":"yes","from":"Ca. Nuevo Indoamérica","hash":"16935","interval":"6","name":"Ca. Nuevo Indoamérica → Av. América Sur","network":"Transporte Público Urbano Trujillo","opening_hours":"Mo-Su 05:00-23:00","operator":"SEÑOR DE LOS MILAGROS S.A","public_transport:version":"2","ref":"M-31 A","route":"bus","to":"Av. América Sur","type":"route"}},{"id":19972041,"tags":{"check_date":"2025-12-18","fee":"yes","from":"Sector Nuevo Indoamérica","hash":"14997","interval":"8","name":"Sector Nuevo Indoamérica → Buenos Aires Sur","network":"Transporte Público Urbano Trujillo","opening_hours":"Mo-Su 05:00-23:00","operator":"SEÑOR DE LOS MILAGROS S.A","public_transport:version":"2","ref":"M-32 A1-B1","route":"bus","to":"Buenos Aires Sur","type":"route"}},{"id":19972045,"tags":{"check_date":"2025-12-18","fee":"yes","from":"Buenos Aires Sur","hash":"15970","interval":"8","name":"Buenos Aires Sur → Sector Nuevo Indoamérica","network":"Transporte Público Urbano Trujillo","opening_hours":"Mo-Su 05:00-23:00","operator":"SEÑOR DE LOS MILAGROS S.A","public_transport:version":"2","ref":"M-32 A1-B1","route":"bus","to":"Sector Nuevo Indoamérica","type":"route"}},{"id":19972046,"tags":{"check_date":"2025-12-18","fee":"yes","from":"Ca. Santa Ana","hash":"12030","interval":"4","name":"Ca. Santa Ana → Av. América Sur","network":"Transporte Público Urbano Trujillo","opening_hours":"Mo-Su 05:00-23:00","operator":"ESPERANZA EXPRESS S.A.","public_transport:version":"2","ref":"M-33 B","route":"bus","to":"Av. América Sur","type":"route"}},{"id":19972051,"tags":{"check_date":"2025-12-18","fee":"yes","from":"Av. América Sur","hash":"12803","interval":"4","name":"Av. América Sur → Ca. Santa Ana","network":"Transporte Público Urbano Trujillo","opening_hours":"Mo-Su 05:00-23:00","operator":"ESPERANZA EXPRESS S.A.","public_transport:version":"2","ref":"M-33 B","route":"bus","to":"Ca. Santa Ana","type":"route"}},{"id":19965743,"tags":{"check_date":"2025-12-16","fee":"yes","from":"Ca. Santa Ana","hash":"14188","interval":"6","name":"Ca. Santa Ana → Ca. Los Pensamientos","network":"Transporte Público Urbano Trujillo","opening_hours":"Mo-Su 05:00-23:00","operator":"ESPERANZA EXPRESS S.A.","public_transport:version":"2","ref":"M-34 A","route":"bus","to":"Ca. Los Pensamientos","type":"route"}},{"id":19965745,"tags":{"check_date":"2025-12-16","fee":"yes","from":"Ca. Los Pensamientos","hash":"14967","interval":"6","name":"Ca. Los Pensamientos → Ca. Santa Ana","network":"Transporte Público Urbano Trujillo","opening_hours":"Mo-Su 05:00-23:00","operator":"ESPERANZA EXPRESS S.A.","public_transport:version":"2","ref":"M-34 A","route":"bus","to":"Ca. Santa Ana","type":"route"}},{"id":19965750,"tags":{"check_date":"2025-12-16","fee":"yes","from":"Ca. Santa Ana","hash":"13799","interval":"6","name":"Ca. Santa Ana → Ca. Los Pensamientos","network":"Transporte Público Urbano Trujillo","opening_hours":"Mo-Su 05:03-23:00","operator":"ESPERANZA EXPRESS S.A.","public_transport:version":"2","ref":"M-34 A","route":"bus","to":"Ca. Los Pensamientos","type":"route"}},{"id":19965773,"tags":{"check_date":"2025-12-16","fee":"yes","from":"Ca. Los Pensamientos","hash":"14089","interval":"6","name":"Ca. Los Pensamientos → Ca. Santa Ana","network":"Transporte Público Urbano Trujillo","opening_hours":"Mo-Su 05:03-23:00","operator":"ESPERANZA EXPRESS S.A.","public_transport:version":"2","ref":"M-34 A","route":"bus","to":"Ca. Santa Ana","type":"route"}},{"id":19965775,"tags":{"check_date":"2025-12-16","fee":"yes","from":"Vía Panamericana","hash":"17704","interval":"9","name":"Vía Panamericana → Av. Del Contador","network":"Transporte Público Urbano Trujillo","opening_hours":"Mo-Su 05:00-23:00","operator":"EL ICARO INVERSIONISTAS S.A.","public_transport:version":"2","ref":"M-35 D","route":"bus","to":"Av. Del Contador","type":"route"}},{"id":19965776,"tags":{"check_date":"2025-12-16","fee":"yes","from":"Av. Del Contador","hash":"18482","interval":"9","name":"Av. Del Contador → Vía Panamericana","network":"Transporte Público Urbano Trujillo","opening_hours":"Mo-Su 05:00-23:00","operator":"EL ICARO INVERSIONISTAS S.A.","public_transport:version":"2","ref":"M-35 D","route":"bus","to":"Vía Panamericana","type":"route"}},{"id":19965801,"tags":{"check_date":"2025-12-16","fee":"yes","from":"Vía Panamericana","hash":"17380","interval":"9","name":"Vía Panamericana → Jirón Francisco de Zela","network":"Transporte Público Urbano Trujillo","opening_hours":"Mo-Su 05:03-23:00","operator":"EL ICARO INVERSIONISTAS S.A.","public_transport:version":"2","ref":"M-35 D","route":"bus","to":"Jirón Francisco de Zela","type":"route"}},{"id":19965802,"tags":{"check_date":"2025-12-16","fee":"yes","from":"Vía Panamericana","hash":"16591","interval":"9","name":"Vía Panamericana → Av. Del Contador","network":"Transporte Público Urbano Trujillo","opening_hours":"Mo-Su 05:03-23:00","operator":"EL ICARO INVERSIONISTAS S.A.","public_transport:version":"2","ref":"M-35 D","route":"bus","to":"Av. Del Contador","type":"route"}},{"id":19965837,"tags":{"check_date":"2025-12-16","fee":"yes","from":"Av. Del Contador","hash":"16887","interval":"9","name":"Av. Del Contador → Vía Panamericana","network":"Transporte Público Urbano Trujillo","opening_hours":"Mo-Su 05:06-23:00","operator":"EL ICARO INVERSIONISTAS S.A.","public_transport:version":"2","ref":"M-35 D","route":"bus","to":"Vía Panamericana","type":"route"}},{"id":19965840,"tags":{"check_date":"2025-12-16","fee":"yes","from":"Vía Panamericana","hash":"16601","interval":"9","name":"Vía Panamericana → Av. Del Contador","network":"Transporte Público Urbano Trujillo","opening_hours":"Mo-Su 05:06-23:00","operator":"EL ICARO INVERSIONISTAS S.A.","public_transport:version":"2","ref":"M-35 D","route":"bus","to":"Av. Del Contador","type":"route","vía":"1458791533 # Avenida las Orquídeas (2 nodos)"}},{"id":19965847,"tags":{"check_date":"2025-12-16","fee":"yes","from":"Vía Panamericana","hash":"16851","interval":"9","name":"Vía Panamericana → Av. Del Contador","network":"Transporte Público Urbano Trujillo","opening_hours":"Mo-Su 05:09-23:00","operator":"EL ICARO INVERSIONISTAS S.A.","public_transport:version":"2","ref":"M-35 D","route":"bus","to":"Av. Del Contador","type":"route"}},{"id":19965854,"tags":{"check_date":"2025-12-16","fee":"yes","from":"Av. Del Contador","hash":"16894","interval":"9","name":"Av. Del Contador → Vía Panamericana","network":"Transporte Público Urbano Trujillo","opening_hours":"Mo-Su 05:09-23:00","operator":"EL ICARO INVERSIONISTAS S.A.","public_transport:version":"2","ref":"M-35 D","route":"bus","to":"Vía Panamericana","type":"route"}},{"id":19961948,"tags":{"check_date":"2025-12-12","fee":"yes","from":"Ca. Virgen de la Puerta","hash":"12807","interval":"3","name":"Ca. Virgen de la Puerta → Av. Libertad","network":"Transporte Público Urbano Trujillo","opening_hours":"Mo-Su 05:00-23:00","operator":"NUEVO CALIFORNIA S.A.","public_transport:version":"2","ref":"M-36 LV","route":"bus","to":"Av. Libertad","type":"route"}},{"id":19961958,"tags":{"check_date":"2025-12-12","fee":"yes","from":"Av. Libertad","hash":"13585","interval":"3","name":"Av. Libertad → Ca. Virgen de la Puerta","network":"Transporte Público Urbano Trujillo","opening_hours":"Mo-Su 05:00-23:00","operator":"NUEVO CALIFORNIA S.A.","public_transport:version":"2","ref":"M-36 LV","route":"bus","to":"Ca. Virgen de la Puerta","type":"route"}}]