[{"id":19528454,"tags":{"colour":"#99BF12","duration":"47.5","from":"Terminal","name":"AVM: Terminal → San Juan Tuxtepec","opening_hours":"Mo-Su 06:00-19:00","operator":"Autotransportes Valle del Mezquital SA de CV","operator:short":"AVM","public_transport:version":"2","ref":"18A","reviewed":"yes","route":"bus","to":"San Juan Tuxtepec","type":"route"}},{"id":19528471,"tags":{"colour":"#99BF12","duration":"47.5","from":"San Juan Tuxtepec","name":"AVM: San Juan Tuxtepec → Terminal","opening_hours":"Mo-Su 06:00-18:00","operator":"Autotransportes Valle del Mezquital SA de CV","operator:short":"AVM","public_transport:version":"2","ref":"18A","reviewed":"yes","route":"bus","to":"Terminal","type":"route"}},{"id":19558882,"tags":{"colour":"#FB0102","duration":"47.5","from":"Terminal","name":"Halcones Rojos: Terminal → San Juan Tuxtepec","opening_hours":"Mo-Su 06:10-20:15","operator":"Autotransportes Halcones Blancos del Norte Franja Roja SA de CV","operator:short":"Halcones Rojos","public_transport:version":"2","ref":"18B","reviewed":"yes","route":"bus","to":"San Juan Tuxtepec","type":"route"}},{"id":19558889,"tags":{"colour":"#FB0102","duration":"47.5","from":"San Juan Tuxtepec","name":"Halcones Rojos: San Juan Tuxtepec → Terminal","opening_hours":"Mo-Su 06:20-19:15","operator":"Autotransportes Halcones Blancos del Norte Franja Roja SA de CV","operator:short":"Halcones Rojos","public_transport:version":"2","ref":"18B","reviewed":"yes","route":"bus","to":"Terminal","type":"route"}},{"id":19528491,"tags":{"colour":"#99BF12","duration":"47.5","from":"Terminal","name":"AVM: Terminal → Ojo de Agua","opening_hours":"Mo-Su 05:30-19:40","operator":"Autotransportes Valle del Mezquital SA de CV","operator:short":"AVM","public_transport:version":"2","ref":"21A","reviewed":"yes","route":"bus","to":"Ojo de Agua","type":"route"}},{"id":19528506,"tags":{"colour":"#99BF12","duration":"47.5","from":"Ojo de Agua","name":"AVM: Ojo de Agua → Terminal","opening_hours":"Mo-Su 06:30-20:00","operator":"Autotransportes Valle del Mezquital SA de CV","operator:short":"AVM","public_transport:version":"2","ref":"21A","reviewed":"yes","route":"bus","to":"Terminal","type":"route"}},{"id":19558890,"tags":{"colour":"#FB0102","duration":"47.5","from":"Terminal","name":"Halcones Rojos: Terminal → Ojo de Agua","opening_hours":"Mo-Su 04:30-20:30","operator":"Autotransportes Halcones Blancos del Norte Franja Roja SA de CV","operator:short":"Halcones Rojos","public_transport:version":"2","ref":"21B","reviewed":"yes","route":"bus","to":"Ojo de Agua","type":"route"}},{"id":19558896,"tags":{"colour":"#FB0102","duration":"47.5","from":"Ojo de Agua","name":"Halcones Rojos: Ojo de Agua → Terminal","opening_hours":"Mo-Su 07:30-22:10","operator":"Autotransportes Halcones Blancos del Norte Franja Roja SA de CV","operator:short":"Halcones Rojos","public_transport:version":"2","ref":"21B","reviewed":"yes","route":"bus","to":"Terminal","type":"route"}},{"id":19531734,"tags":{"colour":"#D1AE3B","duration":"70","from":"Aurrera","name":"Halcones Blancos: Aurrera → El Rosal","opening_hours":"Mo-Su 07:00-20:00","operator":"Autotransportes Halcones Blancos de Jilotepec Centro y Anexas SA de CV","operator:short":"Halcones Blancos","public_transport:version":"2","ref":"30A","reviewed":"yes","route":"bus","to":"El Rosal","type":"route"}},{"id":19531735,"tags":{"colour":"#D1AE3B","duration":"47.5","from":"El Rosal","name":"Halcones Blancos: El Rosal → Aurrera","opening_hours":"Mo-Su 05:00-21:00","operator":"Autotransportes Halcones Blancos de Jilotepec Centro y Anexas SA de CV","operator:short":"Halcones Blancos","public_transport:version":"2","ref":"30A","reviewed":"yes","route":"bus","to":"Aurrera","type":"route"}},{"id":19558897,"tags":{"colour":"#87888A","duration":"70","from":"Aurrera","name":"Herradura de Plata HP: Aurrera → El Rosal","opening_hours":"Mo-Su 06:10-18:00","operator":"Autotransportes Herradura de Plata SA de CV","operator:short":"Herradura de Plata HP","public_transport:version":"2","ref":"30B","reviewed":"yes","route":"bus","to":"El Rosal","type":"route"}},{"id":19558898,"tags":{"colour":"#87888A","duration":"47.5","from":"El Rosal","name":"Herradura de Plata HP: El Rosal → Aurrera","opening_hours":"Mo-Su 05:50-18:00","operator":"Autotransportes Herradura de Plata SA de CV","operator:short":"Herradura de Plata HP","public_transport:version":"2","ref":"30B","reviewed":"yes","route":"bus","to":"Aurrera","type":"route"}},{"id":19531739,"tags":{"colour":"#D1AE3B","duration":"47.5","from":"La Goleta/San Juan Daxthi","name":"Halcones Blancos: La Goleta/San Juan Daxthi → Aurrera","opening_hours":"Mo-Su 05:55-17:30","operator":"Autotransportes Halcones Blancos de Jilotepec Centro y Anexas SA de CV","operator:short":"Halcones Blancos","public_transport:version":"2","ref":"31A","reviewed":"yes","route":"bus","to":"Aurrera","type":"route"}},{"id":19531740,"tags":{"colour":"#D1AE3B","duration":"47.5","from":"La Goleta/San Juan Daxthi","name":"Halcones Blancos: La Goleta/San Juan Daxthi → Aurrera","opening_hours":"Mo-Su 06:00-20:30","operator":"Autotransportes Halcones Blancos de Jilotepec Centro y Anexas SA de CV","operator:short":"Halcones Blancos","public_transport:version":"2","ref":"31B","reviewed":"yes","route":"bus","to":"Aurrera","type":"route"}},{"id":19525478,"tags":{"colour":"#1D3A72","duration":"49.5","from":"Buenavista","name":"Mano Amiga: Buenavista → Mercado","opening_hours":"Mo-Su 05:00-20:15","operator":"Servicios Unidos Urbanos y Suburbanos de Jilotepec SA de CV","operator:short":"Mano Amiga","public_transport:version":"2","ref":"3A","reviewed":"yes","route":"bus","to":"Mercado","type":"route"}},{"id":19525486,"tags":{"colour":"#1D3A72","duration":"49.5","from":"Buenavista","name":"Mano Amiga: Buenavista → Mercado","opening_hours":"Mo-Su 05:00-20:15","operator":"Servicios Unidos Urbanos y Suburbanos de Jilotepec SA de CV","operator:short":"Mano Amiga","public_transport:version":"2","ref":"3B","reviewed":"yes","route":"bus","to":"Mercado","type":"route"}},{"id":19455302,"tags":{"colour":"#1D3A72","duration":"34","from":"Mercado","name":"Mano Amiga: Mercado → Las Huertas/Agua Escondida - Terminal","opening_hours":"Mo-Su 08:00-20:10","operator":"Servicios Unidos Urbanos y Suburbanos de Jilotepec SA de CV","operator:short":"Mano Amiga","public_transport:version":"2","ref":"1","reviewed":"yes","route":"bus","to":"Las Huertas/Agua Escondida - Terminal","type":"route"}},{"id":19455324,"tags":{"colour":"#1D3A72","duration":"34","from":"Las Huertas/Agua Escondida - Terminal","name":"Mano Amiga: Las Huertas/Agua Escondida - Terminal → Mercado","opening_hours":"Mo-Su 06:00-20:40","operator":"Servicios Unidos Urbanos y Suburbanos de Jilotepec SA de CV","operator:short":"Mano Amiga","public_transport:version":"2","ref":"1","reviewed":"yes","route":"bus","to":"Mercado","type":"route"}},{"id":19455371,"tags":{"colour":"#1D3A72","duration":"24","from":"Mercado","name":"Mano Amiga: Mercado → Xhixhata/Santa Martha de la Cruz","opening_hours":"Mo-Su 08:00-19:00","operator":"Servicios Unidos Urbanos y Suburbanos de Jilotepec SA de CV","operator:short":"Mano Amiga","public_transport:version":"2","ref":"2","reviewed":"yes","route":"bus","to":"Xhixhata/Santa Martha de la Cruz","type":"route"}},{"id":19512377,"tags":{"colour":"#1D3A72","duration":"24","from":"Xhixhata/Santa Martha de la Cruz","name":"Mano Amiga: Xhixhata/Santa Martha de la Cruz → Mercado","opening_hours":"Mo-Su 05:00-07:25","operator":"Servicios Unidos Urbanos y Suburbanos de Jilotepec SA de CV","operator:short":"Mano Amiga","public_transport:version":"2","ref":"2","reviewed":"yes","route":"bus","to":"Mercado","type":"route"}},{"id":19455390,"tags":{"colour":"#1D3A72","duration":"49.5","from":"Mercado","name":"Mano Amiga: Mercado → Buenavista","opening_hours":"Mo-Su 08:00-19:30","operator":"Servicios Unidos Urbanos y Suburbanos de Jilotepec SA de CV","operator:short":"Mano Amiga","public_transport:version":"2","ref":"3","reviewed":"yes","route":"bus","to":"Buenavista","type":"route"}},{"id":19455382,"tags":{"colour":"#1D3A72","duration":"61.5","from":"Mercado","name":"Mano Amiga: Mercado → La Comunidad - Terminal","opening_hours":"Mo-Su 08:00-19:20","operator":"Servicios Unidos Urbanos y Suburbanos de Jilotepec SA de CV","operator:short":"Mano Amiga","public_transport:version":"2","ref":"4","reviewed":"yes","route":"bus","to":"La Comunidad - Terminal","type":"route"}},{"id":19512573,"tags":{"colour":"#1D3A72","duration":"61.5","from":"La Comunidad - Terminal","name":"Mano Amiga: La Comunidad - Terminal → Mercado","opening_hours":"Mo-Su 05:00-20:15","operator":"Servicios Unidos Urbanos y Suburbanos de Jilotepec SA de CV","operator:short":"Mano Amiga","public_transport:version":"2","ref":"4","reviewed":"yes","route":"bus","to":"Mercado","type":"route"}},{"id":19525563,"tags":{"colour":"#1D3A72","duration":"74","from":"Mercado","name":"Mano Amiga: Mercado → La Huaracha (vía Llano Grande) - Terminal","opening_hours":"Mo-Su 08:40-18:50","operator":"Servicios Unidos Urbanos y Suburbanos de Jilotepec SA de CV","operator:short":"Mano Amiga","public_transport:version":"2","ref":"5","reviewed":"yes","route":"bus","to":"La Huaracha (vía Llano Grande) - Terminal","type":"route"}},{"id":19525565,"tags":{"colour":"#1D3A72","duration":"74","from":"La Huaracha (vía Llano Grande) - Terminal","name":"Mano Amiga: La Huaracha (vía Llano Grande) - Terminal → Mercado","opening_hours":"Mo-Su 04:30-19:10","operator":"Servicios Unidos Urbanos y Suburbanos de Jilotepec SA de CV","operator:short":"Mano Amiga","public_transport:version":"2","ref":"5","reviewed":"yes","route":"bus","to":"Mercado","type":"route"}},{"id":19525567,"tags":{"colour":"#1D3A72","duration":"70","from":"Mercado","name":"Mano Amiga: Mercado → La Huaracha (vía Aldama) - Terminal","opening_hours":"Mo-Su 08:40-18:50","operator":"Servicios Unidos Urbanos y Suburbanos de Jilotepec SA de CV","operator:short":"Mano Amiga","public_transport:version":"2","ref":"6","reviewed":"yes","route":"bus","to":"La Huaracha (vía Aldama) - Terminal","type":"route"}},{"id":19525570,"tags":{"colour":"#1D3A72","duration":"70","from":"La Huaracha (vía Aldama) - Terminal","name":"Mano Amiga: La Huaracha (vía Aldama) - Terminal → Mercado","opening_hours":"Mo-Su 04:30-19:10","operator":"Servicios Unidos Urbanos y Suburbanos de Jilotepec SA de CV","operator:short":"Mano Amiga","public_transport:version":"2","ref":"6","reviewed":"yes","route":"bus","to":"Mercado","type":"route"}},{"id":19525601,"tags":{"colour":"#1D3A72","duration":"55.5","from":"Mercado","name":"Mano Amiga: Mercado → El Saltillo - Terminal","opening_hours":"Mo-Su 07:50-18:10","operator":"Servicios Unidos Urbanos y Suburbanos de Jilotepec SA de CV","operator:short":"Mano Amiga","public_transport:version":"2","ref":"7","reviewed":"yes","route":"bus","to":"El Saltillo - Terminal","type":"route"}},{"id":19525606,"tags":{"colour":"#1D3A72","duration":"55.5","from":"El Saltillo - Terminal","name":"Mano Amiga: El Saltillo - Terminal → Mercado","opening_hours":"Mo-Su 04:30-19:10","operator":"Servicios Unidos Urbanos y Suburbanos de Jilotepec SA de CV","operator:short":"Mano Amiga","public_transport:version":"2","ref":"7","reviewed":"yes","route":"bus","to":"Mercado","type":"route"}},{"id":19525611,"tags":{"colour":"#1D3A72","duration":"60","from":"Mercado","name":"Mano Amiga: Mercado → Calpulalpan - Terminal","opening_hours":"Mo-Su 08:10-19:30","operator":"Servicios Unidos Urbanos y Suburbanos de Jilotepec SA de CV","operator:short":"Mano Amiga","public_transport:version":"2","ref":"8","reviewed":"yes","route":"bus","to":"Calpulalpan - Terminal","type":"route"}},{"id":19525623,"tags":{"colour":"#1D3A72","duration":"60","from":"Calpulalpan - Terminal","name":"Mano Amiga: Calpulalpan - Terminal → Mercado","opening_hours":"Mo-Su 06:40-19:30","operator":"Servicios Unidos Urbanos y Suburbanos de Jilotepec SA de CV","operator:short":"Mano Amiga","public_transport:version":"2","ref":"8","reviewed":"yes","route":"bus","to":"Mercado","type":"route"}},{"id":19525638,"tags":{"colour":"#1D3A72","duration":"45","from":"Mercado","name":"Mano Amiga: Mercado → Xhimohay - Terminal","opening_hours":"Mo-Su 08:20-17:30","operator":"Servicios Unidos Urbanos y Suburbanos de Jilotepec SA de CV","operator:short":"Mano Amiga","public_transport:version":"2","ref":"9","reviewed":"yes","route":"bus","to":"Xhimohay - Terminal","type":"route"}},{"id":19525651,"tags":{"colour":"#1D3A72","duration":"45","from":"Xhimohay - Terminal","name":"Mano Amiga: Xhimohay - Terminal → Mercado","opening_hours":"Mo-Su 06:30-18:15","operator":"Servicios Unidos Urbanos y Suburbanos de Jilotepec SA de CV","operator:short":"Mano Amiga","public_transport:version":"2","ref":"9","reviewed":"yes","route":"bus","to":"Mercado","type":"route"}},{"id":19525659,"tags":{"colour":"#1D3A72","duration":"37","from":"Mercado","name":"Mano Amiga: Mercado → Ejido San Lorenzo Octeyuco - Terminal","opening_hours":"Mo-Su 09:30-18:30","operator":"Servicios Unidos Urbanos y Suburbanos de Jilotepec SA de CV","operator:short":"Mano Amiga","public_transport:version":"2","ref":"10","reviewed":"yes","route":"bus","to":"Ejido San Lorenzo Octeyuco - Terminal","type":"route"}},{"id":19525663,"tags":{"colour":"#1D3A72","duration":"37","from":"Ejido San Lorenzo Octeyuco - Terminal","name":"Mano Amiga: Ejido San Lorenzo Octeyuco - Terminal → Mercado","opening_hours":"Mo-Su 06:40-19:05","operator":"Servicios Unidos Urbanos y Suburbanos de Jilotepec SA de CV","operator:short":"Mano Amiga","public_transport:version":"2","ref":"10","reviewed":"yes","route":"bus","to":"Mercado","type":"route"}},{"id":19525667,"tags":{"colour":"#1D3A72","duration":"20","from":"Mercado","name":"Mano Amiga: Mercado → Doxhicho - Terminal","opening_hours":"Mo-Su 05:00-07:10","operator":"Servicios Unidos Urbanos y Suburbanos de Jilotepec SA de CV","operator:short":"Mano Amiga","public_transport:version":"2","ref":"11","reviewed":"yes","route":"bus","to":"Doxhicho - Terminal","type":"route"}},{"id":19525674,"tags":{"colour":"#1D3A72","duration":"20","from":"Doxhicho - Terminal","name":"Mano Amiga: Doxhicho - Terminal → Mercado","opening_hours":"Mo-Su 05:00-07:10","operator":"Servicios Unidos Urbanos y Suburbanos de Jilotepec SA de CV","operator:short":"Mano Amiga","public_transport:version":"2","ref":"11","reviewed":"yes","route":"bus","to":"Mercado","type":"route"}},{"id":19525693,"tags":{"colour":"#1D3A72","duration":"45.5","from":"Mercado","name":"Mano Amiga: Mercado → San Lorenzo Octeyuco - Terminal","opening_hours":"Mo-Su 08:00-19:15","operator":"Servicios Unidos Urbanos y Suburbanos de Jilotepec SA de CV","operator:short":"Mano Amiga","public_transport:version":"2","ref":"12","reviewed":"yes","route":"bus","to":"San Lorenzo Octeyuco - Terminal","type":"route"}},{"id":19525710,"tags":{"colour":"#1D3A72","duration":"45.5","from":"San Lorenzo Octeyuco - Terminal","name":"Mano Amiga: San Lorenzo Octeyuco - Terminal → Mercado","opening_hours":"Mo-Su 04:00-19:55","operator":"Servicios Unidos Urbanos y Suburbanos de Jilotepec SA de CV","operator:short":"Mano Amiga","public_transport:version":"2","ref":"12","reviewed":"yes","route":"bus","to":"Mercado","type":"route"}},{"id":19512577,"tags":{"colour":"#1D3A72","duration":"38","from":"Mercado","name":"Mano Amiga: Mercado → El Huizache/El Banco - Base Panteon","opening_hours":"Mo-Su 08:05-18:40","operator":"Servicios Unidos Urbanos y Suburbanos de Jilotepec SA de CV","operator:short":"Mano Amiga","public_transport:version":"2","ref":"13","reviewed":"yes","route":"bus","to":"El Huizache/El Banco - Base Panteon","type":"route"}},{"id":19512581,"tags":{"colour":"#1D3A72","duration":"38","from":"El Huizache/El Banco - Base Panteon","name":"Mano Amiga: El Huizache/El Banco - Base Panteon → Mercado","opening_hours":"Mo-Su 06:00-19:20","operator":"Servicios Unidos Urbanos y Suburbanos de Jilotepec SA de CV","operator:short":"Mano Amiga","public_transport:version":"2","ref":"13","reviewed":"yes","route":"bus","to":"Mercado","type":"route"}},{"id":19525699,"tags":{"colour":"#1D3A72","duration":"21","from":"Mercado","name":"Mano Amiga: Mercado → San Pablo/El Pedregal - Terminal","opening_hours":"Mo-Su 08:00-19:00","operator":"Servicios Unidos Urbanos y Suburbanos de Jilotepec SA de CV","operator:short":"Mano Amiga","public_transport:version":"2","ref":"14","reviewed":"yes","route":"bus","to":"San Pablo/El Pedregal - Terminal","type":"route"}},{"id":19525711,"tags":{"colour":"#1D3A72","duration":"21","from":"San Pablo/El Pedregal - Terminal","name":"Mano Amiga: San Pablo/El Pedregal - Terminal → Mercado","opening_hours":"Mo-Su 06:25-19:25","operator":"Servicios Unidos Urbanos y Suburbanos de Jilotepec SA de CV","operator:short":"Mano Amiga","public_transport:version":"2","ref":"14","reviewed":"yes","route":"bus","to":"Mercado","type":"route"}},{"id":19525716,"tags":{"colour":"#1D3A72","duration":"70","from":"Mercado","name":"Mano Amiga: Mercado → Santiago Oxthoc - Aurrera","opening_hours":"Mo-Su 07:30-14:30","operator":"Servicios Unidos Urbanos y Suburbanos de Jilotepec SA de CV","operator:short":"Mano Amiga","public_transport:version":"2","ref":"15","reviewed":"yes","route":"bus","to":"Santiago Oxthoc - Aurrera","type":"route"}},{"id":19525720,"tags":{"colour":"#1D3A72","duration":"70","from":"Santiago Oxthoc - Aurrera","name":"Mano Amiga: Santiago Oxthoc - Aurrera → Mercado","opening_hours":"Mo-Su 07:10-15:40","operator":"Servicios Unidos Urbanos y Suburbanos de Jilotepec SA de CV","operator:short":"Mano Amiga","public_transport:version":"2","ref":"15","reviewed":"yes","route":"bus","to":"Mercado","type":"route"}},{"id":19525723,"tags":{"colour":"#FB0102","duration":"47.5","from":"Terminal","name":"Halcones Rojos: Terminal → San Lorenzo Nenamicoyan","opening_hours":"Mo-Su 05:40-16:00","operator":"Autotransportes Halcones Blancos del Norte Franja Roja SA de CV","operator:short":"Halcones Rojos","public_transport:version":"2","ref":"16","reviewed":"yes","route":"bus","to":"San Lorenzo Nenamicoyan","type":"route"}},{"id":19525724,"tags":{"colour":"#FB0102","duration":"47.5","from":"San Lorenzo Nenamicoyan","name":"Halcones Rojos: San Lorenzo Nenamicoyan → Terminal","opening_hours":"Mo-Su 05:20-15:20","operator":"Autotransportes Halcones Blancos del Norte Franja Roja SA de CV","operator:short":"Halcones Rojos","public_transport:version":"2","ref":"16","reviewed":"yes","route":"bus","to":"Terminal","type":"route"}},{"id":19528431,"tags":{"colour":"#99BF12","duration":"47.5","from":"Terminal","name":"AVM: Terminal → Km 107","opening_hours":"Mo-Su 06:30-20:00","operator":"Autotransportes Valle del Mezquital SA de CV","operator:short":"AVM","public_transport:version":"2","ref":"17","reviewed":"yes","route":"bus","to":"Km 107","type":"route"}},{"id":19528433,"tags":{"colour":"#99BF12","duration":"47.5","from":"Km 107","name":"AVM: Km 107 → Terminal","opening_hours":"Mo-Su 06:00-18:30","operator":"Autotransportes Valle del Mezquital SA de CV","operator:short":"AVM","public_transport:version":"2","ref":"17","reviewed":"yes","route":"bus","to":"Terminal","type":"route"}},{"id":19528476,"tags":{"colour":"#FB0102","duration":"47.5","from":"Terminal","name":"Halcones Rojos: Terminal → San Andrés Timilpan","opening_hours":"Mo-Su 06:00-20:50","operator":"Autotransportes Halcones Blancos del Norte Franja Roja SA de CV","operator:short":"Halcones Rojos","public_transport:version":"2","ref":"19","reviewed":"yes","route":"bus","to":"San Andrés Timilpan","type":"route"}},{"id":19528479,"tags":{"colour":"#FB0102","duration":"47.5","from":"San Andrés Timilpan","name":"Halcones Rojos: San Andrés Timilpan → Terminal","opening_hours":"Mo-Su 05:50-21:10","operator":"Autotransportes Halcones Blancos del Norte Franja Roja SA de CV","operator:short":"Halcones Rojos","public_transport:version":"2","ref":"19","reviewed":"yes","route":"bus","to":"Terminal","type":"route"}},{"id":19528483,"tags":{"colour":"#FB0102","duration":"47.5","from":"Terminal","name":"Halcones Rojos: Terminal → San Martín Tuchicuitlapilco","opening_hours":"Mo-Su 06:40-20:00","operator":"Autotransportes Halcones Blancos del Norte Franja Roja SA de CV","operator:short":"Halcones Rojos","public_transport:version":"2","ref":"20","reviewed":"yes","route":"bus","to":"San Martín Tuchicuitlapilco","type":"route"}},{"id":19528489,"tags":{"colour":"#FB0102","duration":"47.5","from":"San Martín Tuchicuitlapilco","name":"Halcones Rojos: San Martín Tuchicuitlapilco → Terminal","opening_hours":"Mo-Su 08:20-18:20","operator":"Autotransportes Halcones Blancos del Norte Franja Roja SA de CV","operator:short":"Halcones Rojos","public_transport:version":"2","ref":"20","reviewed":"yes","route":"bus","to":"Terminal","type":"route"}},{"id":19528579,"tags":{"colour":"#0165BB","duration":"47.5","from":"Terminal","name":"ANASA: Terminal → Chapa de Mota (vía El Quinte)","opening_hours":"Mo-Su 07:40-20:10","operator":"Autobuses del Noroeste y Anexas SA de CV","operator:short":"ANASA","public_transport:version":"2","ref":"22","reviewed":"yes","route":"bus","to":"Chapa de Mota (vía El Quinte)","type":"route"}},{"id":19528584,"tags":{"colour":"#0165BB","duration":"47.5","from":"Chapa de Mota (vía El Quinte)","name":"ANASA: Chapa de Mota (vía El Quinte) → Terminal","opening_hours":"Mo-Su 04:00-05:45","operator":"Autobuses del Noroeste y Anexas SA de CV","operator:short":"ANASA","public_transport:version":"2","ref":"22","reviewed":"yes","route":"bus","to":"Terminal","type":"route"}},{"id":19528589,"tags":{"colour":"#A52136","duration":"47.5","from":"Terminal","name":"Rapidos: Terminal → Chapa de Mota (vía Chapa)","opening_hours":"Mo-Su 05:40-18:40","operator":"Autobuses Rápidos de Montealto SA de CV","operator:short":"Rapidos","public_transport:version":"2","ref":"23","reviewed":"yes","route":"bus","to":"Chapa de Mota (vía Chapa)","type":"route"}},{"id":19528594,"tags":{"colour":"#A52136","duration":"47.5","from":"Chapa de Mota (vía Chapa)","name":"Rapidos: Chapa de Mota (vía Chapa) → Terminal","opening_hours":"Mo-Su 06:25-18:25","operator":"Autobuses Rápidos de Montealto SA de CV","operator:short":"Rapidos","public_transport:version":"2","ref":"23","reviewed":"yes","route":"bus","to":"Terminal","type":"route"}},{"id":19528661,"tags":{"colour":"#87888A","duration":"47.5","from":"Terminal","name":"Herradura de Plata HP: Terminal → Santiago Oxthoc/El Xhiti - Aurrera","opening_hours":"Mo-Su 08:10-19:30","operator":"Autotransportes Herradura de Plata SA de CV","operator:short":"Herradura de Plata HP","public_transport:version":"2","ref":"24","reviewed":"yes","route":"bus","to":"Santiago Oxthoc/El Xhiti - Aurrera","type":"route"}},{"id":19528662,"tags":{"colour":"#87888A","duration":"47.5","from":"Santiago Oxthoc/El Xhiti - Aurrera","name":"Herradura de Plata HP: Santiago Oxthoc/El Xhiti - Aurrera → Terminal","opening_hours":"Mo-Su 09:15-17:15","operator":"Autotransportes Herradura de Plata SA de CV","operator:short":"Herradura de Plata HP","public_transport:version":"2","ref":"24","reviewed":"yes","route":"bus","to":"Terminal","type":"route"}},{"id":19528663,"tags":{"colour":"#87888A","duration":"47.5","from":"Terminal","name":"Herradura de Plata HP: Terminal → Emiliano Zapata","opening_hours":"Mo-Su 06:40-19:10","operator":"Autotransportes Herradura de Plata SA de CV","operator:short":"Herradura de Plata HP","public_transport:version":"2","ref":"25","reviewed":"yes","route":"bus","to":"Emiliano Zapata","type":"route"}},{"id":19528664,"tags":{"colour":"#87888A","duration":"47.5","from":"Emiliano Zapata","name":"Herradura de Plata HP: Emiliano Zapata → Terminal","opening_hours":"Mo-Su 05:20-08:00","operator":"Autotransportes Herradura de Plata SA de CV","operator:short":"Herradura de Plata HP","public_transport:version":"2","ref":"25","reviewed":"yes","route":"bus","to":"Terminal","type":"route"}},{"id":19528665,"tags":{"colour":"#1D3A72","duration":"60","from":"Enfrente Terminal","name":"Mano Amiga: Enfrente Terminal → El Saltillito - Terminal","opening_hours":"Mo-Fr 11:40-18:40","operator":"Servicios Unidos Urbanos y Suburbanos de Jilotepec SA de CV","operator:short":"Mano Amiga","public_transport:version":"2","ref":"26","reviewed":"yes","route":"bus","to":"El Saltillito - Terminal","type":"route"}},{"id":19528666,"tags":{"colour":"#1D3A72","duration":"60","from":"El Saltillito - Terminal","name":"Mano Amiga: El Saltillito - Terminal → Enfrente Terminal","opening_hours":"Mo-Fr 06:40-19:40","operator":"Servicios Unidos Urbanos y Suburbanos de Jilotepec SA de CV","operator:short":"Mano Amiga","public_transport:version":"2","ref":"26","reviewed":"yes","route":"bus","to":"Enfrente Terminal","type":"route"}},{"id":19531727,"tags":{"colour":"#D1AE3B","duration":"47.5","from":"Enfrente Terminal","name":"Halcones Blancos: Enfrente Terminal → Ojo de Agua - Terminal","opening_hours":"Mo-Su 08:00-20:00","operator":"Autotransportes Halcones Blancos de Jilotepec Centro y Anexas SA de CV","operator:short":"Halcones Blancos","public_transport:version":"2","ref":"27","reviewed":"yes","route":"bus","to":"Ojo de Agua - Terminal","type":"route"}},{"id":19531728,"tags":{"colour":"#D1AE3B","duration":"47.5","from":"Ojo de Agua - Terminal","name":"Halcones Blancos: Ojo de Agua - Terminal → Enfrente Terminal","opening_hours":"Mo-Su 05:00-19:00","operator":"Autotransportes Halcones Blancos de Jilotepec Centro y Anexas SA de CV","operator:short":"Halcones Blancos","public_transport:version":"2","ref":"27","reviewed":"yes","route":"bus","to":"Enfrente Terminal","type":"route"}},{"id":19531729,"tags":{"colour":"#0165BB","duration":"47.5","from":"Enfrente Terminal","name":"ANASA: Enfrente Terminal → San Juan Tuxtepec","opening_hours":"Mo-Fr 07:25-20:00","operator":"Autobuses del Noroeste y Anexas SA de CV","operator:short":"ANASA","public_transport:version":"2","ref":"28","reviewed":"yes","route":"bus","to":"San Juan Tuxtepec","type":"route"}},{"id":19531730,"tags":{"colour":"#0165BB","duration":"47.5","from":"San Juan Tuxtepec","name":"ANASA: San Juan Tuxtepec → Enfrente Terminal","opening_hours":"Mo-Fr 10:00-20:00","operator":"Autobuses del Noroeste y Anexas SA de CV","operator:short":"ANASA","public_transport:version":"2","ref":"28","reviewed":"yes","route":"bus","to":"Enfrente Terminal","type":"route"}},{"id":19531731,"tags":{"colour":"#0165BB","duration":"45","from":"Enfrente Terminal","name":"ANASA: Enfrente Terminal → Xhimohay - Terminal","opening_hours":"Mo-Fr 09:30-18:30","operator":"Autobuses del Noroeste y Anexas SA de CV","operator:short":"ANASA","public_transport:version":"2","ref":"29","reviewed":"yes","route":"bus","to":"Xhimohay - Terminal","type":"route"}},{"id":19531732,"tags":{"colour":"#0165BB","duration":"45","from":"Xhimohay - Terminal","name":"ANASA: Xhimohay - Terminal → Enfrente Terminal","opening_hours":"Mo-Fr 10:20-19:20","operator":"Autobuses del Noroeste y Anexas SA de CV","operator:short":"ANASA","public_transport:version":"2","ref":"29","reviewed":"yes","route":"bus","to":"Enfrente Terminal","type":"route"}},{"id":19531736,"tags":{"colour":"#D1AE3B","duration":"47.5","from":"Aurrera","name":"Halcones Blancos: Aurrera → La Goleta/San Juan Daxthi","opening_hours":"Mo-Su 08:00-19:00","operator":"Autotransportes Halcones Blancos de Jilotepec Centro y Anexas SA de CV","operator:short":"Halcones Blancos","public_transport:version":"2","ref":"31","reviewed":"yes","route":"bus","to":"La Goleta/San Juan Daxthi","type":"route"}},{"id":19531741,"tags":{"colour":"#99BF12","duration":"60","from":"Aurrera","name":"AVM: Aurrera → Acazuchitlán (San Juanico)","opening_hours":"Mo-Su 06:45-18:55","operator":"Autotransportes Valle del Mezquital SA de CV","operator:short":"AVM","public_transport:version":"2","ref":"32","reviewed":"yes","route":"bus","to":"Acazuchitlán (San Juanico)","type":"route"}},{"id":19531742,"tags":{"colour":"#99BF12","duration":"60","from":"Acazuchitlán (San Juanico)","name":"AVM: Acazuchitlán (San Juanico) → Aurrera","opening_hours":"Mo-Su 05:30-18:50","operator":"Autotransportes Valle del Mezquital SA de CV","operator:short":"AVM","public_transport:version":"2","ref":"32","reviewed":"yes","route":"bus","to":"Aurrera","type":"route"}},{"id":19531743,"tags":{"colour":"#99BF12","duration":"47.5","from":"Aurrera","name":"AVM: Aurrera → Bella Vista","opening_hours":"Mo-Fr 08:25-20:00","operator":"Autotransportes Valle del Mezquital SA de CV","operator:short":"AVM","public_transport:version":"2","ref":"33","reviewed":"yes","route":"bus","to":"Bella Vista","type":"route"}},{"id":19531744,"tags":{"colour":"#99BF12","duration":"47.5","from":"Bella Vista","name":"AVM: Bella Vista → Aurrera","opening_hours":"Mo-Fr 06:40-20:00","operator":"Autotransportes Valle del Mezquital SA de CV","operator:short":"AVM","public_transport:version":"2","ref":"33","reviewed":"yes","route":"bus","to":"Aurrera","type":"route"}},{"id":19531747,"tags":{"colour":"#D1AE3B","duration":"20","from":"Aurrera","name":"Halcones Blancos: Aurrera → Doxhicho","opening_hours":"Mo-Su 12:00-14:00","operator":"Autotransportes Halcones Blancos de Jilotepec Centro y Anexas SA de CV","operator:short":"Halcones Blancos","public_transport:version":"2","ref":"34","reviewed":"yes","route":"bus","to":"Doxhicho","type":"route"}},{"id":19531748,"tags":{"colour":"#D1AE3B","duration":"20","from":"Doxhicho","name":"Halcones Blancos: Doxhicho → Aurrera","opening_hours":"Mo-Su 13:00-15:00","operator":"Autotransportes Halcones Blancos de Jilotepec Centro y Anexas SA de CV","operator:short":"Halcones Blancos","public_transport:version":"2","ref":"34","reviewed":"yes","route":"bus","to":"Aurrera","type":"route"}}]